{"type": "FeatureCollection", "features": [{"type": "Feature", "geometry": {"type": "MultiLineString", "coordinates": [[[-73.95575953930297, 40.68103853446173], [-73.95576031439619, 40.6810114712959], [-73.95576112554302, 40.68098440814384], [-73.95576190065321, 40.68095731753009], [-73.95576267574454, 40.68093025436398], [-73.95576348688942, 40.68090319121163], [-73.9557642619795, 40.680876128045334], [-73.95576503706891, 40.680849064878934], [-73.95576584821185, 40.68082200172633], [-73.95576662331824, 40.68079491111199], [-73.95576739840575, 40.68076784794532], [-73.95576802530748, 40.68074676832738], [-73.95576898463302, 40.680713721625516], [-73.95576975971863, 40.680686658458576], [-73.95577057085768, 40.68065959530535], [-73.95577134596027, 40.6806325046905], [-73.95577212104396, 40.68060544152326], [-73.95577293218106, 40.68057837836973], [-73.9557737072635, 40.68055131520229], [-73.95577448234535, 40.68052425203475], [-73.95577529348051, 40.680497188880985], [-73.95577606856104, 40.680470125713256], [-73.95577687971314, 40.68044303511159], [-73.9557776547924, 40.680415971943674], [-73.95577842987102, 40.68038890877568], [-73.95577924100293, 40.68036184562142], [-73.95578001608033, 40.680334782453194], [-73.95578079115704, 40.6803077192849], [-73.95578160230522, 40.68028062868265], [-73.95578237738071, 40.680253565514164], [-73.95578315245554, 40.6802265023456], [-73.95578396358356, 40.68019943919078], [-73.95578473865714, 40.680172376022], [-73.95578551373006, 40.68014531285315], [-73.95578599343892, 40.68012870715773], [-73.95578709994604, 40.68009115908124], [-73.95578801945037, 40.680063766594756], [-73.95578933556307, 40.68003634681285], [-73.95579112033641, 40.68000898210636], [-73.95579333775261, 40.679981617565986], [-73.9557959877929, 40.67995428063939], [-73.9557990704749, 40.679926943878876], [-73.95580262181542, 40.67989966219367], [-73.95580656972477, 40.679872408108295], [-73.95581095023789, 40.67984520908432], [-73.95581590809608, 40.6798172691929], [-73.95582104516343, 40.67979092133873], [-73.95582672352114, 40.67976383260311], [-73.95583283446241, 40.67973682637642], [-73.95583937802309, 40.67970984776309], [-73.95584635416631, 40.67968295165851], [-73.95585376289152, 40.67965613806265], [-73.95586160421644, 40.679629379527576], [-73.95586987814053, 40.6796026760533], [-73.95587854857358, 40.67957608252135], [-73.95588765160484, 40.67954954404997], [-73.95589718721573, 40.67952308808681], [-73.95590470012472, 40.679502230686026], [-73.95591625843292, 40.679470148710166], [-73.9559257940211, 40.67944369274437], [-73.95593532960172, 40.67941723677771], [-73.95594486519288, 40.67939075336242], [-73.95595440075836, 40.679364297394], [-73.95596393631627, 40.679337841424704], [-73.95597347188473, 40.67931135800686], [-73.9559830074275, 40.6792849020358], [-73.95599254296272, 40.6792584460639], [-73.95600207850846, 40.679231962643335], [-73.95601161402854, 40.67920550666967], [-73.95602367784821, 40.67917210738369], [-73.95603068506408, 40.679152567271956], [-73.95604022056146, 40.67912611129571], [-73.95604975605126, 40.679099655318545], [-73.9560592915335, 40.67907319934051], [-73.95606882702627, 40.67904671591382], [-73.95607836249337, 40.67902025993403], [-73.95608789795291, 40.678993803953354], [-73.95609743342291, 40.67896732052406], [-73.95610696886732, 40.67894086454168], [-73.95611650430415, 40.678914408558384], [-73.95612603975148, 40.67888792512643], [-73.95613557517318, 40.6788614691414], [-73.95614511058731, 40.678835013155485], [-73.95615464601194, 40.67880852972091], [-73.95616418141094, 40.678782073733245], [-73.95617371680238, 40.678755617744734], [-73.9561832522043, 40.678729134307545], [-73.9561927875806, 40.678702678317244], [-73.95620232294934, 40.678676222326054], [-73.95620972731032, 40.6786556667871], [-73.95622139368214, 40.67862328289335], [-73.95623092902818, 40.67859682689952], [-73.95624046436664, 40.678570370904886], [-73.95624999971555, 40.67854388746159], [-73.9562595350389, 40.678517431465146], [-73.95626907035467, 40.678490975467845], [-73.95627954472891, 40.67846193973887], [-73.9562881409815, 40.67843803602283], [-73.95629771232738, 40.6784115800366], [-73.95630724763086, 40.67838509658808], [-73.95631678290879, 40.67835864058639], [-73.95632631817915, 40.67833218458381], [-73.9563358534599, 40.67830570113263], [-73.95634538871514, 40.678279245128316], [-73.95635492396279, 40.67825278912313], [-73.95636445922084, 40.67822630566935], [-73.95637399445336, 40.67819984966241], [-73.95638352967832, 40.6781733936546], [-73.95639306491367, 40.67814691019815], [-73.95640260012348, 40.678120454188594], [-73.95641213532575, 40.678093998178156], [-73.95642167052044, 40.67806754216682], [-73.95643120572551, 40.67804105870691], [-73.95644074090507, 40.67801460269384], [-73.95645027607706, 40.6779881466799], [-73.95645731911402, 40.67796857910532], [-73.95646934641626, 40.67793520720165], [-73.95647888156556, 40.67790875118508], [-73.95648841672514, 40.677882267719916], [-73.9564979518593, 40.67785581170158], [-73.9565074869859, 40.6778293556824], [-73.95651702212282, 40.67780287221457], [-73.95652655723427, 40.677776416193616], [-73.95653609233817, 40.6777499601718], [-73.95654562745239, 40.6777234767014], [-73.95655516254115, 40.677697020677826], [-73.95656469762234, 40.677670564653376], [-73.95657423271383, 40.67764408118031], [-73.95657965038869, 40.67762901441387], [-73.9565933028384, 40.677591169127034], [-73.95660283788933, 40.677564713099066], [-73.95661237295056, 40.677538229622535], [-73.95662190798636, 40.67751177359286], [-73.95663144301459, 40.67748531756228], [-73.9566409780531, 40.67745883408308], [-73.9566505130662, 40.677432378050746], [-73.95666004807173, 40.677405922017556], [-73.95666958308753, 40.677379438535745], [-73.95667911807793, 40.67735298250079], [-73.95668865306077, 40.677326526464974], [-73.95669818805385, 40.67730004298052], [-73.95670772302155, 40.67727358694295], [-73.95671725798168, 40.6772471309045], [-73.95672679295201, 40.67722064741746], [-73.956736327897, 40.67719419137726], [-73.95674586283445, 40.67716773533619], [-73.95676002078648, 40.67712840803933], [-73.95676493270443, 40.67711479580364], [-73.95677446761916, 40.67708833975994], [-73.95678400254411, 40.677061856267656], [-73.95679353744372, 40.6770354002222], [-73.95680307233576, 40.67700894417588], [-73.95681260722023, 40.67698248812867], [-73.95682214211492, 40.67695600463284], [-73.95683359118894, 40.67692422443941], [-73.95684121184603, 40.676903092534054], [-73.95685074671799, 40.67687660903564], [-73.95686028156464, 40.67685015298405], [-73.95686981640371, 40.67682369693162], [-73.95687935125297, 40.67679721343053], [-73.95688888607691, 40.67677075737634], [-73.95689842089328, 40.67674430132125], [-73.95690795571984, 40.676717817817575], [-73.95691749052109, 40.67669136176074], [-73.95692702531477, 40.676664905703035], [-73.95693656011859, 40.67663842219671], [-73.95694609489715, 40.67661196613726], [-73.95695562966813, 40.67658551007694], [-73.9569651644492, 40.67655902656802], [-73.95697469920505, 40.676532570505934], [-73.95698423395334, 40.67650611444298], [-73.95699376869405, 40.676479658379144], [-73.9570033034449, 40.676453174866694], [-73.95701283817048, 40.6764267188011], [-73.9570223728885, 40.676400262734646], [-73.95703190761664, 40.67637377921963], [-73.95704144231954, 40.67634732315142], [-73.95705097701486, 40.67632086708234], [-73.95706051172027, 40.67629438356462], [-73.95707311627024, 40.67625941983739], [-73.9570795810731, 40.67624147142209], [-73.9570891157558, 40.676214987901794], [-73.9570986504133, 40.67618853182835], [-73.95710818506323, 40.67616207575402], [-73.95711771972324, 40.67613559223105], [-73.95712725435803, 40.676109136154984], [-73.95713678898527, 40.67608268007803], [-73.95714632362257, 40.676056196552466], [-73.95715585823466, 40.67602974047379], [-73.95716539283919, 40.67600328439422], [-73.95717492743616, 40.67597682831375], [-73.95718446204317, 40.67595034478467], [-73.95719399662501, 40.67592388870247], [-73.95720353119923, 40.6758974326194], [-73.95721306578355, 40.6758709490877], [-73.95722260034267, 40.675844493002906], [-73.95723209871963, 40.67581822903797], [-73.95724159710664, 40.67579193762447], [-73.95725109546859, 40.6757656736578], [-73.95726369971322, 40.67573087459392], [-73.95727012823905, 40.67571311828758], [-73.95727962659612, 40.67568682687062], [-73.9572891249281, 40.675660562900504], [-73.95729862327023, 40.67563427148179], [-73.95730815763861, 40.67560800752332], [-73.95731765594813, 40.67558174355059], [-73.95732715426773, 40.675555452129274], [-73.95733665256236, 40.67552918815483], [-73.957346150867, 40.67550289673174], [-73.95735564914658, 40.67547663275558], [-73.95736518348751, 40.67545034134415], [-73.95737468175213, 40.67542407736621], [-73.95738418000931, 40.67539781338743], [-73.9573959173784, 40.675365374493], [-73.95740317651868, 40.67534525797948], [-73.95741267477095, 40.67531896655035], [-73.95742220904933, 40.67529270258146], [-73.95743170728655, 40.67526641115059], [-73.95744120549877, 40.67524014716657], [-73.95745070372108, 40.67521385573397], [-73.95746020191834, 40.6751875917482], [-73.9574674248463, 40.67516766735111], [-73.957479234359, 40.67513503633974], [-73.95748873253385, 40.675108772351365], [-73.95749823071866, 40.675082480914426], [-73.95750772887848, 40.675056216924375], [-73.95751722704838, 40.675029925485696], [-73.95752553337766, 40.67500700967962], [-73.95753625938163, 40.67497739751452], [-73.957545757529, 40.67495110607322], [-73.9575552556514, 40.67492484207878], [-73.95756475378384, 40.67489855063576], [-73.95757425189129, 40.67487228663963], [-73.95758378605964, 40.67484599520814], [-73.9575932841521, 40.674819731210256], [-73.95760278225458, 40.67479343976377], [-73.95761228033207, 40.67476717576413], [-73.95762177840209, 40.67474091176364], [-73.9576312764821, 40.674714620314546], [-73.957640810588, 40.67468835632559], [-73.95765030865299, 40.67466206487475], [-73.95765980669306, 40.67463580087082], [-73.95766930474313, 40.67460950941824], [-73.95767880276823, 40.674583245412535], [-73.95768956477384, 40.674553496006105], [-73.95769783486416, 40.67453068996402], [-73.95770733286682, 40.674504425955746], [-73.9577138333622, 40.67448650496202], [-73.95772622038444, 40.674452391956265], [-73.95773564608946, 40.674426402396335], [-73.95774510785522, 40.674400385401086], [-73.95775456961358, 40.67437436840495], [-73.9577639953139, 40.67434835139473], [-73.9577734570401, 40.674322361844645], [-73.9577856995557, 40.674288633047354], [-73.95779234445459, 40.67427032783317], [-73.95780177012547, 40.67424431081951], [-73.95781123182222, 40.674218321266004], [-73.9578206574784, 40.67419230425062], [-73.95783011917773, 40.67416628724768], [-73.95783954480187, 40.67414029767834], [-73.95784900648644, 40.67411428067364], [-73.9578584681637, 40.67408826366807], [-73.95786789378306, 40.67406224664843], [-73.95787735542822, 40.67403625708891], [-73.95788678103287, 40.67401024006756], [-73.95789624268056, 40.67398422305858], [-73.9579056682705, 40.67395820603552], [-73.95791512988617, 40.67393221647256], [-73.95792455546139, 40.67390619944779], [-73.95793401707964, 40.673880182435404], [-73.9579434426228, 40.67385419285664], [-73.95795290422627, 40.67382817584251], [-73.9579623297721, 40.67380215881434], [-73.9579717913608, 40.67377614179846], [-73.9579812529249, 40.67375015222948], [-73.95799067844857, 40.67372413519873], [-73.9580001400152, 40.67369811818032], [-73.95800956550688, 40.673672128595605], [-73.95801902705871, 40.673646111575465], [-73.95802845255297, 40.67362009454128], [-73.95803506118199, 40.67360192653724], [-73.95804733955237, 40.67356808793127], [-73.95805680107476, 40.67354207090772], [-73.95806622653956, 40.673516053870124], [-73.9580756880299, 40.67349006429255], [-73.95808511348002, 40.673464047253276], [-73.95809457497288, 40.67343803022624], [-73.95810168913, 40.67341849001424], [-73.95811346186916, 40.67338602360428], [-73.95812292333993, 40.67336000657469], [-73.95813234875321, 40.673333989531095], [-73.95814181020917, 40.67330797249983], [-73.95815123559052, 40.67328198290224], [-73.95816235481601, 40.6732567926496], [-73.958162643628, 40.67325613675321], [-73.95817350285083, 40.67323163808834], [-73.9581740840741, 40.67323033453117], [-73.95818478065038, 40.67320649455219], [-73.95818564706077, 40.67320456528973], [-73.95819607644923, 40.673181378469174], [-73.95819724610575, 40.673178768612395], [-73.95820734342712, 40.6731562184581], [-73.95820878385501, 40.673152974656354], [-73.95821850585324, 40.67313105566309], [-73.95822022428449, 40.67312714223686], [-73.95822951324573, 40.6731059092793], [-73.9582315096971, 40.67310129878078], [-73.95824043423208, 40.673080567983945], [-73.95824263290194, 40.673075414092956], [-73.9582511966213, 40.67305517722394], [-73.95825358669437, 40.67304947993657], [-73.95826178237651, 40.67302975620626], [-73.95826434942218, 40.673023531985905], [-73.95827219509952, 40.67300431042178], [-73.95827494272766, 40.67299755103539], [-73.95828244920698, 40.67297884536534], [-73.95828538104465, 40.6729715151321], [-73.95829254830244, 40.67295336378307], [-73.958295664351, 40.67294545995816], [-73.95830251041092, 40.67292786568152], [-73.95830581429048, 40.67291936356327], [-73.95831235356609, 40.6729023373434], [-73.95831583804413, 40.672893272611184], [-73.95832209218118, 40.67287678975305], [-73.95832576087778, 40.67286713770528], [-73.95833172984584, 40.67285124761483], [-73.95833559720126, 40.672840975319254], [-73.95834137486568, 40.67282546119332], [-73.95834534699223, 40.67281482113535], [-73.95835097666625, 40.672799597901545], [-73.95835504634019, 40.67278861203674], [-73.95836052439502, 40.67277371812066], [-73.95836467716875, 40.67276243036021], [-73.95837002886175, 40.67274783008893], [-73.95837712116275, 40.67272840513101], [-73.95838364290577, 40.67271053076459], [-73.95838891161094, 40.67269603476382], [-73.95839306446749, 40.67268459878436], [-73.95839832235706, 40.67267009728965], [-73.95840247162599, 40.67265862837121], [-73.95840770063573, 40.672644184505856], [-73.95841186796052, 40.672632660698085], [-73.9584170717023, 40.67261826348433], [-73.95842125347626, 40.672606687530624], [-73.95842643194328, 40.67259234794758], [-73.95843063177475, 40.67258071435973], [-73.9584357849704, 40.67256642691781], [-73.95844283404864, 40.67254688116968], [-73.95844935589136, 40.672528789961945], [-73.95845449102347, 40.6725145519185], [-73.9584587233548, 40.67250281403982], [-73.95846383681719, 40.67248863362838], [-73.95846808720593, 40.672476838115564], [-73.95847318620689, 40.672462718083565], [-73.95847745825968, 40.672450862193074], [-73.95848253919944, 40.67243679430482], [-73.9584868329094, 40.67242488901578], [-73.95849186334331, 40.67241087325965], [-73.95849618952874, 40.67239891308645], [-73.95850118748501, 40.672384943979296], [-73.95850553172266, 40.67237293440622], [-73.95851053686275, 40.67235900098329], [-73.95851489191698, 40.67234698317944], [-73.95851990424431, 40.67233307995121], [-73.95852428095567, 40.67232101274879], [-73.95852928963487, 40.67230717264866], [-73.95853369161327, 40.672295047814636], [-73.95853870025452, 40.67228126260953], [-73.95854312028494, 40.67226908837566], [-73.95854811446492, 40.67225536354996], [-73.95855256337254, 40.67224312345149], [-73.95855755392319, 40.67222943156134], [-73.95856201004743, 40.67221717499641], [-73.95856698614368, 40.67220353250659], [-73.95857144948802, 40.67219125398561], [-73.95857642557024, 40.67217762796399], [-73.95858090696818, 40.67216529729837], [-73.95858586137933, 40.67215173165363], [-73.95859036804595, 40.67213934061161], [-73.95859530078951, 40.67212582985409], [-73.95859982550971, 40.67211338666744], [-73.95860473297905, 40.672099933540714], [-73.9586092757579, 40.67208742997506], [-73.95861417239325, 40.67207400154696], [-73.95861872239378, 40.672061473280486], [-73.9586235937567, 40.67204809973838], [-73.95862816541738, 40.67203551658381], [-73.95863301151304, 40.672022189693344], [-73.95863758679037, 40.67200958183668], [-73.95864241844377, 40.671996285133154], [-73.95864701538466, 40.67198361689878], [-73.95865182176571, 40.67197037508124], [-73.95865644036495, 40.671957654703455], [-73.95866122147031, 40.67194447326149], [-73.95866586173302, 40.671931692506014], [-73.95867063560947, 40.67191853576403], [-73.95867528309371, 40.67190573030772], [-73.95868003530285, 40.671892628453044], [-73.95868470084383, 40.671879765362526], [-73.95868943499232, 40.67186671565167], [-73.95869883106445, 40.671840811082454], [-73.95870823074104, 40.67181489553463], [-73.95871294321503, 40.671801903455176], [-73.95871762319194, 40.67178899370719], [-73.95872235733263, 40.67177593576047], [-73.95872703007905, 40.67176305345726], [-73.95873177144117, 40.67174997080974], [-73.95873641891212, 40.671737148882066], [-73.95874118554582, 40.67172400036856], [-73.95874513968307, 40.67171309404568], [-73.95874740022484, 40.67170685323508], [-73.95875710320477, 40.67168008416614], [-73.95876428203346, 40.67166027768907], [-73.95876552424514, 40.67165684990875], [-73.95877385139735, 40.67163386539165], [-73.95878342436711, 40.67160743937071], [-73.95879297928094, 40.67158105176933], [-73.95880254862722, 40.671554631234905], [-73.95881081437547, 40.67153180040034], [-73.95881211075101, 40.671528218931385], [-73.95881987816598, 40.671506763050616], [-73.95882167647886, 40.67150179564913], [-73.95882893112308, 40.67148174490966], [-73.95883123859089, 40.671475377854264], [-73.95883798046002, 40.6714567404905], [-73.95884079347874, 40.6714489710351], [-73.95884702978846, 40.67143173881533], [-73.95885035196731, 40.67142255872676], [-73.9588560827218, 40.67140672616158], [-73.95885991405493, 40.67139614367405], [-73.95886513564835, 40.67138171350701], [-73.95886947613836, 40.6713697231309], [-73.95887418857323, 40.67135669261734], [-73.95887903821419, 40.67134330258688], [-73.95888324148113, 40.67133168819552], [-73.95888859305744, 40.67131690674242], [-73.95889229077565, 40.67130668651643], [-73.95889815150817, 40.67129049442964], [-73.95890134367504, 40.6712816738587], [-73.95890772078124, 40.67126405741692], [-73.95891040378253, 40.67125665296846], [-73.95891541951995, 40.67124279912845], [-73.9589188536177, 40.67123331715226], [-73.95892312908869, 40.67122150790593], [-73.95892728900886, 40.671210011522746], [-73.95893167641952, 40.67119789215628], [-73.95893563411794, 40.67118695563493], [-73.95894282007737, 40.67116710523171], [-73.95894877467131, 40.671150655166606], [-73.95895230626229, 40.67114089600169], [-73.95895731476242, 40.671127058625714], [-73.95896064774415, 40.671117848344956], [-73.95896585484573, 40.671103464828924], [-73.95896897838534, 40.67109483362098], [-73.95897440576134, 40.67107983260839], [-73.95897730903087, 40.67107180242772], [-73.9589829422328, 40.671056230574536], [-73.95898564689563, 40.67104874653334], [-73.95899173869034, 40.671031912246], [-73.95899467084541, 40.67102379973185], [-73.95900052070347, 40.671007624104156], [-73.95900369479183, 40.67099884744007], [-73.95900930271183, 40.67098333321676], [-73.9590127223465, 40.67097387868007], [-73.95901571227235, 40.670965606988894], [-73.95901912107878, 40.67095617166158], [-73.95902211100474, 40.670947897225446], [-73.95902553064258, 40.670938431709224], [-73.95903093633352, 40.670923480091936], [-73.9590345942971, 40.67091335316918], [-73.95903976888577, 40.67089903002293], [-73.95904227493725, 40.67089208388579], [-73.95904363990023, 40.67088830755921], [-73.9590485761604, 40.67087464032929], [-73.95905271799774, 40.67086316863766], [-73.95905524570772, 40.67085617035709], [-73.95905683094409, 40.67085177927882], [-73.95906134471248, 40.670839278427934], [-73.9590650857255, 40.670828912738116], [-73.95906997865607, 40.67081534704849], [-73.95907332967144, 40.670806070895914], [-73.95907767011182, 40.67079403933948], [-73.95908158083671, 40.67078320435263], [-73.95908534712468, 40.67077276181733], [-73.95908984282768, 40.670760310364805], [-73.95909303857397, 40.67075144861762], [-73.9590980903717, 40.67073745205323], [-73.9591007300217, 40.67073012992776], [-73.95910689040059, 40.670713051373006], [-73.95910840701816, 40.67070885514868], [-73.95911654622849, 40.670686282253925], [-73.95912448321427, 40.6706642747107], [-73.95912707951604, 40.67065708980799], [-73.95913328321544, 40.67063988775209], [-73.95913640672849, 40.67063122909138], [-73.95914207960536, 40.67061550079147], [-73.95914852883786, 40.670597629096356], [-73.9591500346255, 40.670593449336224], [-73.95915507556794, 40.67057948021305], [-73.95915968680045, 40.670566702170106], [-73.95916439914201, 40.67055363870607], [-73.95916848677761, 40.67054231246375], [-73.95917227831606, 40.670531798570074], [-73.95917636955377, 40.670520472328704], [-73.95918015747984, 40.67050996666774], [-73.9591842523332, 40.67049861846916], [-73.95918803663847, 40.67048813476485], [-73.95919214593205, 40.670476748144225], [-73.95919591578355, 40.67046631658527], [-73.95920166806847, 40.67045037696244], [-73.95920379131698, 40.67044450114858], [-73.95921119380554, 40.67042400029159], [-73.95921330622099, 40.670418151921375], [-73.95922071953841, 40.670397618130266], [-73.95922281389105, 40.6703918301386], [-73.95923024886358, 40.67037124420367], [-73.95923232516013, 40.670365505611365], [-73.9592397817911, 40.67034486204315], [-73.95924184364651, 40.670339156382894], [-73.95924931110119, 40.67031848811484], [-73.95925135850369, 40.670312834600004], [-73.95925885483321, 40.670292097722104], [-73.95926087695996, 40.6702865100728], [-73.95926839493943, 40.67026572928543], [-73.95927040623661, 40.67026016359026], [-73.9592779350414, 40.670239355358305], [-73.95927992827927, 40.67023384455214], [-73.9592874787424, 40.67021297868681], [-73.9592894539227, 40.670207520024825], [-73.95929702243411, 40.670186604759216], [-73.95929899038474, 40.67018117628705], [-73.95930657332971, 40.67016022808853], [-73.95930851600974, 40.67015485724756], [-73.95931612421435, 40.670133856906524], [-73.95931804883688, 40.67012853820972], [-73.9593256787013, 40.670107477490575], [-73.95933044510906, 40.67009431797098], [-73.95933522956749, 40.670081111796335], [-73.95933712529975, 40.67007587268751], [-73.9593447876425, 40.67005473512467], [-73.95934666170747, 40.67004955639313], [-73.9593543421018, 40.670028363940446], [-73.95935619810933, 40.6700232373531], [-73.9593639001617, 40.67000198726706], [-73.95936574533319, 40.66999689361304], [-73.95937345460416, 40.669975618825845], [-73.95937528171831, 40.669970577316015], [-73.95938301264893, 40.66994924215068], [-73.95938481809758, 40.66994425827336], [-73.95939257068281, 40.66992287096422], [-73.95939436530048, 40.669917911785916], [-73.95940211427643, 40.669896521729996], [-73.95940390166304, 40.669891595486284], [-73.95941500876293, 40.669860929268594], [-73.95942122670992, 40.66984376562748], [-73.95942297798874, 40.66983893269315], [-73.95943077389245, 40.66981740541279], [-73.95943250712072, 40.66981261364358], [-73.95944032468223, 40.669791028729804], [-73.95944203985168, 40.66978629184964], [-73.95944987185635, 40.669764657534294], [-73.95945157979806, 40.66975994809915], [-73.95945942623584, 40.66973828085084], [-73.95946110890578, 40.66973363179174], [-73.9594689733948, 40.66971190965355], [-73.95947063800935, 40.669707309993896], [-73.95947852415436, 40.6696855329671], [-73.95948017071021, 40.669680988196454], [-73.9594880749031, 40.669659161769324], [-73.95948971062651, 40.66965464444249], [-73.95949762564756, 40.669632785081106], [-73.95949923609935, 40.66962832813034], [-73.95950716917322, 40.66960641113424], [-73.95950876517448, 40.66960200358427], [-73.95951671629777, 40.66958003444303], [-73.95951829786024, 40.66957565708034], [-73.95952625980667, 40.6695536632392], [-73.95952781970742, 40.6695493380195], [-73.95953580331296, 40.66952728380019], [-73.9595373451535, 40.66952301621433], [-73.95954534680843, 40.669500909849845], [-73.95954688503129, 40.669496661476], [-73.95955489390278, 40.669474533155125], [-73.95955640324107, 40.66947035887994], [-73.95956443738149, 40.669448161947805], [-73.95956593226941, 40.66944403707342], [-73.95957398806719, 40.669421782507804], [-73.9595754757344, 40.66941767409941], [-73.95958353513555, 40.66939541130002], [-73.95958499752477, 40.669391374246786], [-73.95959308580454, 40.669369034603044], [-73.95959453013866, 40.669365046949345], [-73.95960263646094, 40.66934266613954], [-73.95960406274338, 40.669338722395764], [-73.95961360255514, 40.669312389609566], [-73.95961580154311, 40.66930632991385], [-73.95961836523611, 40.66929924379944], [-73.95962174496569, 40.66928992097813], [-73.95962313874628, 40.66928607054512], [-73.95963130642046, 40.66926354153666], [-73.95963267853463, 40.669259751481036], [-73.95964086425623, 40.66923717307221], [-73.9596422219286, 40.66923341869347], [-73.9596496963151, 40.6692127998052], [-73.95965998351322, 40.66918443065228], [-73.95966954493609, 40.66915805395212], [-73.95967910634643, 40.669131685485375], [-73.95968866775253, 40.66910531152824], [-73.95969822554295, 40.669078943058494], [-73.95970778693551, 40.6690525663548], [-73.9597173411061, 40.66902619788206], [-73.95972689527403, 40.6689998211741], [-73.95973644582634, 40.66897344995355], [-73.95974599637438, 40.668947073242556], [-73.95975554330684, 40.66892070201898], [-73.95976509023667, 40.668894322560234], [-73.9597719940601, 40.66887525151799], [-73.95977463354924, 40.66886795133363], [-73.95978080798773, 40.668850897447044], [-73.95978418046397, 40.66884157187313], [-73.95978962191553, 40.6688265323962], [-73.95979372015668, 40.66881520064358], [-73.95979843944664, 40.66880215911158], [-73.95980324540457, 40.6687888596006], [-73.95980725697625, 40.66877777759187], [-73.95981269120787, 40.668762738111184], [-73.95981659446156, 40.66875194152109], [-73.9598221514526, 40.66873656722], [-73.95982593193965, 40.668726105449515], [-73.9598316261337, 40.66871035516132], [-73.9598352585797, 40.66870029682106], [-73.95984108276708, 40.66868417054329], [-73.95984459605323, 40.66867444427912], [-73.9598505393897, 40.6686579914139], [-73.95985391907575, 40.66864863290299], [-73.95985999240015, 40.66863181228241], [-73.95986323488152, 40.66862282152347], [-73.95986944902441, 40.6686056057036], [-73.95987256512555, 40.66859696623171], [-73.95987889841855, 40.6685794210796], [-73.95988187731213, 40.668571154849296], [-73.95988833698446, 40.66855324743009], [-73.95989119671752, 40.668545316020825], [-73.95989778276892, 40.668527046334425], [-73.95990050529817, 40.66851948267723], [-73.95990722133483, 40.66850084798019], [-73.95990981387651, 40.668493641098486], [-73.95991664907083, 40.66847466334522], [-73.95991911522664, 40.66846781872987], [-73.95992607679943, 40.668448478709394], [-73.95992841658268, 40.668441974402214], [-73.95993550453707, 40.66842226662494], [-73.95993769989141, 40.66841615751517], [-73.95994492504471, 40.66839607649534], [-73.95994700124297, 40.668390296717185], [-73.959954334729, 40.66836988910593], [-73.95995627732945, 40.66836447708121], [-73.95996374441916, 40.66834367975744], [-73.95996554980564, 40.66833865469842], [-73.95997314687922, 40.668317492363755], [-73.95997483311356, 40.66831279114685], [-73.9599825493401, 40.66829129124541], [-73.95998409836591, 40.66828696875988], [-73.95999194097288, 40.66826510110153], [-73.95999336723229, 40.66826111892555], [-73.96000133982582, 40.668238880766744], [-73.96000262527234, 40.66823527732099], [-73.96001072063451, 40.66821268238306], [-73.9600200978295, 40.66818648674206], [-73.96002948224303, 40.668160263654975], [-73.96003885221052, 40.66813407349936], [-73.9600470450747, 40.668111146474445], [-73.96005554122998, 40.66808738514182], [-73.96005757771441, 40.668081676711864], [-73.96006500146933, 40.66806090406881], [-73.96006694768283, 40.668055448126836], [-73.96007445809809, 40.66803442024885], [-73.9600762996038, 40.66802924698244], [-73.96008390750825, 40.66800793917033], [-73.96008565151747, 40.66800304583725], [-73.96009336052546, 40.66798144162353], [-73.96009500704496, 40.6679768172447], [-73.96010280271442, 40.667954955051236], [-73.96010435173777, 40.66795061060569], [-73.96011224129286, 40.66792846573208], [-73.96011368199942, 40.66792441219522], [-73.96012166543669, 40.66790199013092], [-73.96012300864741, 40.6678982165275], [-73.96013109318763, 40.66787549806147], [-73.9601323461301, 40.66787197420141], [-73.96014167277164, 40.66784576480808], [-73.96015099219477, 40.66781955815616], [-73.96016031883642, 40.66779332405815], [-73.96016963824654, 40.66776711465982], [-73.96017895404462, 40.66774090525941], [-73.96018826622576, 40.66771470409122], [-73.96019758562538, 40.66768847547692], [-73.96020690140804, 40.66766225509491], [-73.96021621357049, 40.66763604843465], [-73.96022553655774, 40.667609811584754], [-73.96023484870888, 40.66758359943328], [-73.96024416445572, 40.667557390027035], [-73.96025347658887, 40.667531183363465], [-73.96026279954027, 40.66750495748933], [-73.9602721188682, 40.66747875082656], [-73.96028143819207, 40.667452538673416], [-73.96029077194044, 40.6674263045662], [-73.96030009845741, 40.667400095158634], [-73.96030942136072, 40.66737388849373], [-73.96031875869012, 40.66734765713001], [-73.96032808518511, 40.66732144771997], [-73.96033740806317, 40.66729524654215], [-73.96034582103485, 40.66727160043786], [-73.96035606463253, 40.6672428085056], [-73.96036538749514, 40.66721659634615], [-73.96036660791698, 40.66721316304971], [-73.96037471034552, 40.66719039242022], [-73.9603760318702, 40.66718666821203], [-73.96038404041585, 40.667164158303365], [-73.9603854594255, 40.667160165140395], [-73.96039336325482, 40.66713794888615], [-73.9603948833605, 40.66713367579058], [-73.96040268608648, 40.66711173946817], [-73.96040430728962, 40.66710718369514], [-73.96041200529963, 40.66708554102718], [-73.96041372399377, 40.66708070532021], [-73.96042133533571, 40.66705931514131], [-73.96042315873662, 40.667054188523764], [-73.96043065815027, 40.66703309748643], [-73.96043257903699, 40.667027699169296], [-73.960439980951, 40.66700689080988], [-73.96044199932336, 40.66700122079306], [-73.96044931097002, 40.666980656687166], [-73.96045141961203, 40.666974725947306], [-73.96045863375771, 40.666954447264125], [-73.9604608543249, 40.666948209147435], [-73.96046795653639, 40.666928240585], [-73.96047026737786, 40.66692173351095], [-73.96047727570313, 40.666902033903845], [-73.96047969124547, 40.66689524415342], [-73.9604866020849, 40.66687580526611], [-73.96048911510886, 40.66686874930551], [-73.96049592123373, 40.666849604072794], [-73.96049853896969, 40.666842246222366], [-73.96050524398805, 40.66682338915604], [-73.96050795921018, 40.666815756861055], [-73.96051457395573, 40.66679715502746], [-73.96051737944644, 40.66678926200928], [-73.96052389308748, 40.666770945597335], [-73.9605267960592, 40.66676278636891], [-73.96053321581648, 40.66674473616761], [-73.96053621988516, 40.666736291516685], [-73.96054253493196, 40.6667185294806], [-73.96054564732128, 40.66670977470666], [-73.96055186487031, 40.666692295348675], [-73.96055506752111, 40.66668329083063], [-73.96056118396787, 40.666666094149505], [-73.96056448410562, 40.666656812442056], [-73.96057049945347, 40.66663989294828], [-73.96057390429536, 40.66663032032998], [-73.96057983297928, 40.66661365058077], [-73.96058333169991, 40.66660380626131], [-73.96058915205812, 40.666587443889576], [-73.9605938170107, 40.666574325449226], [-73.96059847473752, 40.66656123170919], [-73.96060217564175, 40.66655083026842], [-73.96060779740473, 40.666535027762315], [-73.96061159579993, 40.666524340897716], [-73.96061712729175, 40.66650879362451], [-73.96062102316803, 40.666497837804684], [-73.96062644994755, 40.66648258418645], [-73.96063044691589, 40.66647134843351], [-73.96063577258948, 40.666456385726605], [-73.96063987426253, 40.66644485631788], [-73.96064510244963, 40.66643015982064], [-73.9606492943843, 40.66641837792288], [-73.96065442869134, 40.66640394489171], [-73.96065909722284, 40.66639082644968], [-73.96066375852867, 40.66637773270795], [-73.96066815626237, 40.66636537173164], [-73.96067308474923, 40.666351528756444], [-73.96067757996471, 40.66633889608002], [-73.96068242179412, 40.66632529461527], [-73.96068700727066, 40.66631240944973], [-73.96069173355727, 40.666299131828836], [-73.96069639124079, 40.66628604631875], [-73.96070105253202, 40.66627295257536], [-73.96070577520516, 40.66625968044217], [-73.96071036427564, 40.66624679802159], [-73.96071515193663, 40.66623334201003], [-73.96071968684687, 40.666220607788574], [-73.96072453227184, 40.66620699259921], [-73.96072899858073, 40.66619444499877], [-73.96073391259964, 40.66618064318747], [-73.96073832112764, 40.66616827123273], [-73.96074329652298, 40.66615429652094], [-73.96074763284203, 40.66614211667566], [-73.96075268044058, 40.66612794710878], [-73.96075695537753, 40.66611593741841], [-73.9607620715745, 40.666101572995224], [-73.96076627068194, 40.66608978286086], [-73.96077145547405, 40.66607522907091], [-73.96077559320443, 40.666063600857136], [-73.96078083936935, 40.6660488796562], [-73.96078491210208, 40.6660374408096], [-73.96079022325567, 40.6660225329854], [-73.96079423821779, 40.666011253315865], [-73.96079960713455, 40.6659961863138], [-73.96080355348812, 40.66598510698932], [-73.96080899100603, 40.66596983964135], [-73.96081287597968, 40.665958927727026], [-73.9608183784763, 40.66594349022444], [-73.96082220567482, 40.665932745721626], [-73.9608277731629, 40.66591711610618], [-73.96083152092645, 40.66590659390301], [-73.96083715701054, 40.66589077217596], [-73.96084085061017, 40.66588040640636], [-73.96084654085232, 40.665864425500075], [-73.96085016945823, 40.66585424360816], [-73.96085592829137, 40.66583807882461], [-73.96085949190844, 40.66582807257604], [-73.96086531211833, 40.66581173214708], [-73.96086880713243, 40.66580191800929], [-73.96087470315358, 40.665785374491996], [-73.96087813317739, 40.66577573874238], [-73.9608840941862, 40.66575900860173], [-73.96088745199137, 40.665749584175195], [-73.96089347438152, 40.665732670154775], [-73.96089677441715, 40.665723404905414], [-73.96090286178344, 40.665706323475035], [-73.96090609682594, 40.66569724210343], [-73.96091224557337, 40.66567997679325], [-73.96091542284651, 40.665671054598874], [-73.96092162935584, 40.665653630110576], [-73.96092473441723, 40.66564490826022], [-73.96093101313257, 40.66562728068231], [-73.96093406041834, 40.665618728988285], [-73.96094040412548, 40.665600906552655], [-73.96094337198086, 40.66559257166886], [-73.96094978788571, 40.665574559867494], [-73.96095269796734, 40.66556639239526], [-73.96095917163858, 40.66554821318143], [-73.96096201311825, 40.66554023782015], [-73.96096855538399, 40.665521866494565], [-73.96097133909491, 40.66551405031057], [-73.96097793912203, 40.6654955198068], [-73.96098065784061, 40.6654878875007], [-73.96098732285425, 40.66546917037348], [-73.96098997658382, 40.66546171645568], [-73.96099671740724, 40.66544279623994], [-73.96099929531009, 40.66543556187845], [-73.96100610112137, 40.665416452294465], [-73.96100861764802, 40.665409382598604], [-73.96101548483136, 40.665390102858545], [-73.96101793275513, 40.66538322801848], [-73.96102486853228, 40.665363756166606], [-73.96102725868461, 40.66535704599341], [-73.96103425222583, 40.66533740947379], [-73.96103657738483, 40.66533088592332], [-73.96104363591353, 40.66531106003533], [-73.96104590330296, 40.665304698407006], [-73.96105303403137, 40.665284677663635], [-73.96105521477298, 40.66527854931191], [-73.96106241409329, 40.66525833920138], [-73.96106454067166, 40.6652523700283], [-73.96107179414778, 40.665232000738285], [-73.96107385573487, 40.66522621544319], [-73.96108117780423, 40.66520565404126], [-73.96108317801271, 40.66520003890143], [-73.9610905686624, 40.66517930734576], [-73.96109250749558, 40.66517385687172], [-73.9610999595132, 40.665152960649486], [-73.96110183335377, 40.66514769679822], [-73.96110935756569, 40.66512661395473], [-73.96111117363729, 40.66512151202569], [-73.96111876643721, 40.66510024530463], [-73.96112050307582, 40.665095368420396], [-73.96112816807621, 40.66507390409897], [-73.96112984694444, 40.66506919188179], [-73.96113757331395, 40.665047560148935], [-73.9611391871852, 40.6650430427889], [-73.96114384829944, 40.665029954515184], [-73.96114698214717, 40.66502121894401], [-73.96114853464215, 40.665016868994606], [-73.96115639097303, 40.66499487773827], [-73.96115787486823, 40.66499071990004], [-73.96116579979464, 40.6649685310421], [-73.9611672223153, 40.66496453786969], [-73.96117050421698, 40.66495533299067], [-73.96117520861836, 40.66494216787643], [-73.96117655892698, 40.66493838053789], [-73.96118460300525, 40.66491582391844], [-73.9611858919348, 40.66491220948014], [-73.96119399017726, 40.66488947721246], [-73.96119520690131, 40.664886057628934], [-73.96120335211313, 40.66486312500751], [-73.96120451106601, 40.66485987283592], [-73.96121377916516, 40.6648337099881], [-73.96122302565051, 40.664807511450064], [-73.9612322360751, 40.66478132662298], [-73.96124143569642, 40.66475511159883], [-73.9612506028488, 40.664728932245055], [-73.96125978082685, 40.66470271995679], [-73.96126895517871, 40.66467653236954], [-73.96127815116499, 40.66465032008571], [-73.96128735433398, 40.66462414074082], [-73.96129660076615, 40.664597933961915], [-73.9613058651962, 40.66457175738079], [-73.96131516926884, 40.66454558081216], [-73.96132450936521, 40.664519428957846], [-73.96133391794517, 40.66449326889138], [-73.96134336977049, 40.66446711158335], [-73.96134798729398, 40.66445446519519], [-73.96135287563568, 40.66444098997473], [-73.96136246800522, 40.66441486290477], [-73.96137214684097, 40.66438879624812], [-73.96138195183381, 40.66436271865378], [-73.96139165928565, 40.66433700608133], [-73.96140143881877, 40.664311296276985], [-73.9614114165835, 40.66428560300689], [-73.96142146640081, 40.66425996191082], [-73.96143152703185, 40.66423430709351], [-73.96144170299169, 40.66420866603783], [-73.96145205192083, 40.66418309365857], [-73.96146226750837, 40.66415746359329], [-73.9614725803797, 40.66413188571045], [-73.96148301580605, 40.664106291398916], [-73.9614935052651, 40.66408074376571], [-73.96150410644789, 40.66405520989278], [-73.9615108887123, 40.66403893287967], [-73.9615148807387, 40.66402950315559], [-73.96152165930785, 40.66401337435866], [-73.96152558632507, 40.664004161449945], [-73.96153249837913, 40.66398781860421], [-73.96153634234895, 40.663978849952684], [-73.96154343114658, 40.66396228483826], [-73.96154719929547, 40.663953530253686], [-73.96155442517902, 40.66393675658122], [-73.9615581066762, 40.66392824625262], [-73.96156546965972, 40.66391123931899], [-73.96156905008573, 40.66390297598639], [-73.96157654295533, 40.66388574402352], [-73.96158003314278, 40.663877694753104], [-73.96158763426652, 40.663860245988126], [-73.9615910269924, 40.663852435480585], [-73.96159875081493, 40.66383472325703], [-73.96160203165661, 40.66382715974188], [-73.96160984931973, 40.66380922247699], [-73.96161302548957, 40.6638019004671], [-73.9616209406118, 40.66378371345903], [-73.96162401933157, 40.663776610998625], [-73.96163201748058, 40.66375819894557], [-73.9616349879243, 40.66375133798926], [-73.96164307270601, 40.66373269814767], [-73.96164594569368, 40.66372606771996], [-73.96165413153064, 40.66370719186028], [-73.96165690706712, 40.66370078372687], [-73.9616651975558, 40.66368168557413], [-73.96166787923308, 40.663675521694486], [-73.96167631404005, 40.66365617106931], [-73.96167890546121, 40.66365025418941], [-73.96168509163722, 40.66363617827939], [-73.96169000374705, 40.663625027878965], [-73.96169395216063, 40.663616136110335], [-73.96170123899167, 40.663599807102436], [-73.96170293887185, 40.663596030852695], [-73.96171201204587, 40.66357599424251], [-73.96171664960119, 40.66356589774455], [-73.96172364733985, 40.663550828492426], [-73.96173072432502, 40.66353584435435], [-73.96173550960175, 40.663525846716794], [-73.96173919413647, 40.6635182449048], [-73.96174478040614, 40.66350685044081], [-73.96174770340379, 40.663500974841234], [-73.96175061194371, 40.66349516785624], [-73.96176069415597, 40.663475458206214], [-73.96177127393567, 40.66345547698746], [-73.96177420026584, 40.663450068000735], [-73.96178530268152, 40.66343009518869], [-73.9617880628797, 40.66342525157081], [-73.96180006668368, 40.663404793230825], [-73.96181492383616, 40.663380460208906], [-73.96182035577466, 40.66337416548902], [-73.96183469961298, 40.663352393172836], [-73.96184543315154, 40.663334495285234], [-73.96186760734003, 40.663303862670546], [-73.9618829592692, 40.66328406692318], [-73.96189711759217, 40.6632651793002], [-73.96190151122524, 40.66325923830896], [-73.96190625477436, 40.66325280062844], [-73.96191488696778, 40.66324105308799], [-73.96192059366614, 40.66323328450797], [-73.96192784786543, 40.66322343589736], [-73.96193864793547, 40.66320888116361], [-73.96194969678535, 40.66319419201696], [-73.96195740167781, 40.66318409103387], [-73.9619724324788, 40.663164780994], [-73.96198778759263, 40.663145611042985], [-73.96200316762712, 40.66312697084048], [-73.96201868442388, 40.663108679267964], [-73.96203707195414, 40.663087586221394], [-73.96205555656508, 40.66306689394157], [-73.96207169300145, 40.66304912681898], [-73.96208780408422, 40.66303156005461], [-73.96209512204085, 40.66302360535177], [-73.96210649751004, 40.66301124112524], [-73.96211791266764, 40.6629988000568], [-73.96212465718989, 40.662991407842966], [-73.96213507336584, 40.66297992162699], [-73.96214594766924, 40.66296779053775], [-73.96215307463225, 40.66295973695626], [-73.96215762278705, 40.6629545480754], [-73.96215997081225, 40.66295185347476], [-73.96216364615233, 40.66294761125527], [-73.96216729986996, 40.66294336079425], [-73.96218136308423, 40.66292666069322], [-73.9621926925483, 40.6629127346636], [-73.96220421348806, 40.66289802368896], [-73.96221585745425, 40.66288246461682], [-73.96222691750907, 40.66286688064873], [-73.96223777969813, 40.662850618654126], [-73.96224076681992, 40.66284595076547], [-73.96224714530358, 40.66283565444785], [-73.96225567084942, 40.66282107972377], [-73.96226397692433, 40.66280579128452], [-73.9622663548608, 40.66280117809091], [-73.9622730452166, 40.662787525009236], [-73.96228090561806, 40.66276996374539], [-73.96228799835386, 40.662752254011245], [-73.96229440282623, 40.66273421193274], [-73.96230009015198, 40.6627159225887], [-73.96230505304213, 40.66269752870535], [-73.9623093636356, 40.662678942473484], [-73.96231269996902, 40.66266223335116], [-73.96231608855538, 40.66264235128112], [-73.96231686276153, 40.66263729290677], [-73.96231760814142, 40.66263221805427], [-73.96231810391767, 40.66262873234715], [-73.96231891828543, 40.66262276546405], [-73.96232016001319, 40.66261319208106], [-73.9623219598816, 40.6625982034316], [-73.96232351397062, 40.662584414170055], [-73.96232448857084, 40.66257554610773], [-73.96232616233036, 40.66256047232868], [-73.9623278935569, 40.662545758134456], [-73.96232910640623, 40.6625362561061], [-73.96233232592358, 40.66251575365985], [-73.96233606142329, 40.662494274240956], [-73.96235245985453, 40.66246535512574], [-73.96235479480173, 40.66245385526497], [-73.96235580522016, 40.66244537697268], [-73.96235663063878, 40.66243259206118], [-73.96235699074298, 40.662420416338364], [-73.96235713970749, 40.66241193227456], [-73.96235733759255, 40.662399792180764], [-73.96235748600397, 40.66239228800291], [-73.9623576556934, 40.66238540140734], [-73.96235787252367, 40.662378012532585], [-73.96235794221414, 40.66237587437236], [-73.96235797525799, 40.66237480391927], [-73.96235801190625, 40.66237373346735], [-73.96235804855444, 40.66237266301543], [-73.96235938365626, 40.662287023594864]]]}, "properties": {"objectid": "2", "service_name": "Franklin Avenue Shuttle", "service": "SF", "shape_stlength": "7098.21908922379"}}, {"type": "Feature", "geometry": {"type": "MultiLineString", "coordinates": [[[-73.9791938105732, 40.7527567602367], [-73.97922496573422, 40.752769578337336], [-73.97927320521784, 40.752789343713935], [-73.97932123184458, 40.75280890317609], [-73.97936934152561, 40.752828424206555], [-73.97941775801625, 40.75284797820861], [-73.97947284375276, 40.752870113440785], [-73.97952834820647, 40.75289224872097], [-73.9795894393062, 40.75291638588461], [-73.9796396172448, 40.752936030681916], [-73.97969547567773, 40.75295765542102], [-73.9797509046345, 40.75297929103649], [-73.97981295592346, 40.753003595679594], [-73.97987457774995, 40.75302789472468], [-73.97993648104118, 40.75305255060274], [-73.97998105803494, 40.75307045410591], [-73.98000650428055, 40.75308080621982], [-73.98005916509865, 40.75310240277957], [-73.9800783102102, 40.7531103219412], [-73.98012033920394, 40.75312785989829], [-73.9801406571713, 40.753136418777906], [-73.9801817261693, 40.75315377813851], [-73.98020243384997, 40.75316270761502], [-73.98023636085614, 40.75317722766045], [-73.98026476984083, 40.75318961408261], [-73.98029115789906, 40.75320102302225], [-73.98032663668005, 40.753216482009805], [-73.98034570952458, 40.753224892424164], [-73.98039978839543, 40.75324866290881], [-73.98044338351566, 40.753267894522736], [-73.98046239866602, 40.75327621707595], [-73.98049836103736, 40.75329215642314], [-73.98052457948683, 40.75330373819939], [-73.98055329887232, 40.753316500632906], [-73.98058677480515, 40.753331229099416], [-73.98061125020186, 40.75334202830937], [-73.98064905683249, 40.753358604700914], [-73.9806763255109, 40.753370675183795], [-73.98071141114792, 40.75338580736167], [-73.98074558731544, 40.7534007005839], [-73.98077389911782, 40.75341280964444], [-73.9808012256491, 40.753424676996076], [-73.9808365532196, 40.75343963351226], [-73.98086387981797, 40.75345134439848], [-73.9808993012825, 40.7534662213133], [-73.98092675065368, 40.753477816925596], [-73.98096225157157, 40.75349262521553], [-73.9809897262778, 40.753504053387395], [-73.98102534994467, 40.75351885069907], [-73.98105284275206, 40.75353016357945], [-73.98108852059737, 40.75354492519876], [-73.98111608203268, 40.75355613651968], [-73.98115185015213, 40.753570854218154], [-73.98117932499682, 40.75358202159378], [-73.98121515449927, 40.7535967530063], [-73.98124258604679, 40.7536079423177], [-73.98127842640136, 40.75362268743601], [-73.98130580381604, 40.753633926128934], [-73.98134167306189, 40.75364871240336], [-73.98136895664773, 40.75365997576877], [-73.98140486922011, 40.753674811435886], [-73.98143204814598, 40.75368611045106], [-73.9814679499009, 40.753701009225935], [-73.9814950638827, 40.75371229723676], [-73.98153103061608, 40.75372726187622], [-73.98155810852568, 40.753738549866426], [-73.98159404279251, 40.75375355290741], [-73.98162111351982, 40.7537647859867], [-73.98165713084094, 40.75377975059468], [-73.9816841402387, 40.75379095345715], [-73.98172025864581, 40.75380593452993], [-73.98174723919362, 40.75381712364918], [-73.98178335762837, 40.75383210744689], [-73.98181028406367, 40.75384327184006], [-73.98184649275123, 40.75385829131384], [-73.98187336507237, 40.753869436470524], [-73.9819095954431, 40.75388446141729], [-73.98193645695798, 40.75389560381275], [-73.98197268735647, 40.75391063148439], [-73.9819994983679, 40.75392174915446], [-73.98203581541014, 40.753936812501415], [-73.98206257952525, 40.753947913680975], [-73.98209894712282, 40.75396299348431], [-73.9821256715603, 40.753974078174544], [-73.98216204640295, 40.75398916619327], [-73.98218871672739, 40.75400022615771], [-73.98222518182351, 40.7540153498521], [-73.98225179081608, 40.75402638508973], [-73.98228828481221, 40.75404152249225], [-73.98231486134492, 40.754052543986546], [-73.98235137702379, 40.75406768960657], [-73.98237793914133, 40.75407870559455], [-73.98241450537515, 40.754093870415474], [-73.9824410061599, 40.75410486442152], [-73.98247763377539, 40.75412005393443], [-73.98250407683734, 40.75413102321448], [-73.98254075861738, 40.754146231928644], [-73.98256715117516, 40.75415717648378], [-73.98260385824466, 40.75417240439489], [-73.98263019668812, 40.75418332696938], [-73.98266695070346, 40.75419857408063], [-73.98269329999437, 40.75420950213179], [-73.98273007930288, 40.754224754716084], [-73.98275636726133, 40.754235658040855], [-73.9827932079512, 40.7542509380616], [-73.98281941292356, 40.75426180567786], [-73.98285631860435, 40.75427711313553], [-73.9828825199886, 40.7542879779921], [-73.98291941848031, 40.75430328268364], [-73.98294558379472, 40.75431413379675], [-73.98298254367025, 40.75432945769035], [-73.98300863321559, 40.75434027858568], [-73.98304564364466, 40.75435562991388], [-73.98307173321056, 40.75436645079488], [-73.98310877254175, 40.75438181034121], [-73.98313477551167, 40.7543925955135], [-73.98317190148778, 40.7544079934786], [-73.98319785756082, 40.754418759416524], [-73.98323501243854, 40.75443416834442], [-73.98326093605081, 40.75444492053965], [-73.98329811261134, 40.75446034042925], [-73.98332400737152, 40.75447108162707], [-73.98336123448875, 40.754486517972076], [-73.98338707874247, 40.75449723993511], [-73.98342434919704, 40.754512695479136], [-73.98345012850994, 40.754523384481686], [-73.98348748200124, 40.754538875698834], [-73.98351323246187, 40.75454955370413], [-73.98355059680934, 40.75456505039182], [-73.98358752087188, 40.75458036310659], [-73.98361368279522, 40.75459121132224], [-73.98363935389749, 40.754601856351016], [-73.98367681935767, 40.7546173914384], [-73.9837024616075, 40.754628025469984], [-73.9837399234877, 40.7546435605363], [-73.98376552605816, 40.75465417807974], [-73.98380305293054, 40.754669740582045], [-73.9838285761227, 40.75468032241858], [-73.983866182423, 40.7546959205931], [-73.98389167676262, 40.75470649143261], [-73.98392929392001, 40.754722092332734], [-73.98395472692555, 40.75473263844697], [-73.9839923693764, 40.75474824756416], [-73.98400623537226, 40.75475399973278], [-73.98405553871667, 40.75477444668991], [-73.98408089597157, 40.75478496257348], [-73.98410920183818, 40.754796700270134], [-73.98411859261765, 40.754800593614824], [-73.98415273796171, 40.754814755716225], [-73.98418172235813, 40.75482677345245], [-73.98420703995254, 40.75483727557901], [-73.98424489184536, 40.75485298070829], [-73.98425838254126, 40.754858579089294], [-73.9843079639357, 40.75487915497912], [-73.98433314803026, 40.75488961863327], [-73.98437106494194, 40.75490536764574], [-73.98439619131065, 40.75491580932024], [-73.98443413712306, 40.75493157752903], [-73.98445922380789, 40.75494201918435], [-73.9844972310059, 40.75495780659378], [-73.98452226718233, 40.75496823176009], [-73.98456031771833, 40.75498404111242], [-73.98458528895047, 40.75499444155358], [-73.9846233792151, 40.75501027284833], [-73.98464832520911, 40.75502063759068], [-73.98468646604015, 40.755036449658], [-73.98471137957203, 40.75504680065863], [-73.98474958540342, 40.75506260996888], [-73.98477443760585, 40.75507291154231], [-73.98481271565586, 40.75508872084111], [-73.98483758592995, 40.755099000445256], [-73.98487590371812, 40.755114790514966], [-73.98490072348892, 40.75512502892765], [-73.98493912432036, 40.75514083545565], [-73.9849638719373, 40.75515100522664], [-73.98500230166927, 40.755166833695256], [-73.98502706735272, 40.75517700345492], [-73.98506552598347, 40.75519286209832], [-73.98509023754643, 40.755203023603144], [-73.98512871785837, 40.755218906930914], [-73.98514272120546, 40.75522467544846], [-73.98515676785783, 40.75523049063058], [-73.98517078924048, 40.7552363332552], [-73.98518483590085, 40.75524213471017], [-73.9851988608954, 40.7552479883108], [-73.98521293281762, 40.75525383093671], [-73.98522695781647, 40.755259687278645], [-73.98524109109691, 40.75526556284597], [-73.98525515940011, 40.755271482319166], [-73.98526914109307, 40.755277338650416], [-73.98528317331221, 40.75528323341284], [-73.98529730658444, 40.755289191315605], [-73.98531136405171, 40.75529519037814], [-73.98532543596657, 40.75530115650386], [-73.98533948983247, 40.75530714183877], [-73.98535351482293, 40.755313138147265], [-73.98536756507418, 40.75531917013896], [-73.985381543133, 40.755325229567234], [-73.98539561864288, 40.75533131919834], [-73.98540974467257, 40.755337477452784], [-73.9854236433192, 40.755343591760756], [-73.98543761775, 40.75534978292953], [-73.98545164270972, 40.75535600155044], [-73.98546563157038, 40.755362253102035], [-73.98547960598205, 40.755368567779236], [-73.9854935984401, 40.75537489892547], [-73.9855074537357, 40.75538125750021], [-73.98552134512008, 40.755387654504275], [-73.98553516069974, 40.755394092668276], [-73.98554906650168, 40.75540060769487], [-73.98556630707935, 40.755408786453465], [-73.98557841553709, 40.75541457663841], [-73.98559036518633, 40.7554203420995], [-73.9856041807142, 40.75542708217721], [-73.98561786269624, 40.75543381674714], [-73.9856315266184, 40.75544062267654], [-73.98564516887423, 40.755447486241266], [-73.98565877141472, 40.7554544156733], [-73.98567227288792, 40.75546136979389], [-73.98568579239058, 40.75546841998122], [-73.98569925774136, 40.7554755305446], [-73.98571260036759, 40.75548266853867], [-73.98572602959365, 40.75548994652392], [-73.98573933609407, 40.75549725742937], [-73.98575255956811, 40.755504623217895], [-73.98576572527797, 40.75551206310592], [-73.98577888735903, 40.75551960729229], [-73.98579201332862, 40.75552724479402], [-73.98580495521702, 40.755534890505864], [-73.98581788625667, 40.75554264600464], [-73.98583081727301, 40.75555052501555], [-73.98584360029703, 40.7555584396885], [-73.9858562822446, 40.75556642296629], [-73.98586896055895, 40.75557453250047], [-73.985881530578, 40.755582710638635], [-73.98589401034619, 40.755590971106685], [-73.98590643956177, 40.75559934135706], [-73.98591869191098, 40.755607739031895], [-73.985930926187, 40.75561627394048], [-73.98594304855769, 40.755624880197516], [-73.98595509510965, 40.7556335962338], [-73.98596706223397, 40.75564241930422], [-73.98597888857962, 40.75565130274066], [-73.98599062106328, 40.755660276741054], [-73.986002219982, 40.755669335811106], [-73.98601369977536, 40.75567847171842], [-73.98602513622656, 40.755687758580336], [-73.98603643189557, 40.75569712227683], [-73.98604761204645, 40.75570657379012], [-73.98605868389454, 40.755716129589516], [-73.98606956443425, 40.75572573202538], [-73.98608030058341, 40.75573540580615], [-73.98609100782262, 40.75574525799085], [-73.98610201454514, 40.755755617988605], [-73.98611983089975, 40.75577290654343], [-73.98614747719267, 40.75580113134371], [-73.98615664322486, 40.75581089824977], [-73.98619031898882, 40.75584873860715], [-73.9862300238851, 40.75589791547376], [-73.98623960442154, 40.7559106412581], [-73.98625466610468, 40.75593139607601]]]}, "properties": {"objectid": "10", "service_name": "42 Street Shuttle", "service": "ST", "shape_stlength": "2285.504908819597"}}, {"type": "Feature", "geometry": {"type": "MultiLineString", "coordinates": [[[-73.81629740699577, 40.609272887798035], [-73.81621562072148, 40.6089871358141], [-73.81617840672392, 40.60886522086419], [-73.81609330099378, 40.60860164420856], [-73.81600189064547, 40.60833772252355], [-73.81597915513676, 40.60827471215198], [-73.81595616318613, 40.60821198407934], [-73.81593283252747, 40.60814933231366], [-73.81590914157549, 40.608086748585755], [-73.81588508673728, 40.60802423014478], [-73.81586067510314, 40.607961818174], [-73.81583590316332, 40.60789947972986], [-73.81581079250479, 40.607837223081134], [-73.8157853718569, 40.60777507846653], [-73.81574673261535, 40.60768206108884], [-73.81570757802676, 40.607589204814104], [-73.81562748332277, 40.60740201814376], [-73.80990232478386, 40.59407092721108], [-73.80983577909777, 40.59391429457676], [-73.80980877238584, 40.593851517352306], [-73.80978143443615, 40.59378874780714], [-73.80976763590209, 40.593757346348646], [-73.80973996256215, 40.593694787587715], [-73.80972597243998, 40.593663663032025], [-73.80969860421244, 40.5936014643352], [-73.80967167528915, 40.59353927733824], [-73.80965843388584, 40.593508255571635], [-73.80964689279953, 40.593480752715976], [-73.80961963631566, 40.59341477458678], [-73.80960707556898, 40.59338372649344], [-73.80959682630254, 40.5933577930567], [-73.80958204684346, 40.59331941539784], [-73.80957698665557, 40.59330594923056], [-73.80955772866648, 40.59325343388731], [-73.80954810537025, 40.59322644473307], [-73.8095373622894, 40.5931956604005], [-73.80952711374697, 40.5931657058179], [-73.80951706339157, 40.59313570215628], [-73.80950718244895, 40.593105638388764], [-73.80949751042453, 40.59307555026343], [-73.80948802578442, 40.593045413041345], [-73.8094787499915, 40.59301527616463], [-73.8094696796014, 40.592985084731545], [-73.80946081102107, 40.592954835991335], [-73.80945214066524, 40.59292452444851], [-73.80944166163412, 40.59288704321773], [-73.80942043908385, 40.59280888261553], [-73.80940360975659, 40.592744472538236], [-73.80938301712227, 40.59266262944327], [-73.80936784402263, 40.592598271513644], [-73.8093548912414, 40.592538157990326], [-73.80934877263749, 40.5925070107612], [-73.80934302537497, 40.59247569945946], [-73.80933766344064, 40.59244436958304], [-73.80933273021394, 40.59241296081824], [-73.80932817118322, 40.59238164874225], [-73.8093241773772, 40.59235036505193], [-73.80932062314933, 40.59231897778818], [-73.80931753708461, 40.59228756385303], [-73.80931456223837, 40.592251247878835], [-73.80931278734313, 40.59222469168085], [-73.80931114537844, 40.59219319505264], [-73.80930998945975, 40.592161712954926], [-73.80930931603275, 40.592130228912986], [-73.8093091252143, 40.59209870175492], [-73.80930941326992, 40.59206717813627], [-73.80931015865791, 40.59203563606282], [-73.80931137568605, 40.59200410849594], [-73.80931303197946, 40.59197258440273], [-73.80931514907074, 40.591941088522134], [-73.80931772708456, 40.59190957693741], [-73.80932073701953, 40.591878118220556], [-73.80932419343412, 40.591846657499694], [-73.80932807472423, 40.591815194738764], [-73.80933237713968, 40.59178378208292], [-73.80933711506665, 40.59175242504554], [-73.80934228158537, 40.59172102480211], [-73.80934621227424, 40.59169873800889], [-73.80935383094233, 40.591658459640854], [-73.8093602247458, 40.59162723710013], [-73.80936710546906, 40.59159571892776], [-73.80937437493165, 40.59156424257185], [-73.80938202947773, 40.59153282723991], [-73.80939006920063, 40.591501439994396], [-73.80939848319638, 40.59147011649958], [-73.80940724982173, 40.5914388704435], [-73.80941925171358, 40.59139811350968], [-73.80942588102015, 40.59137645151509], [-73.80943572757369, 40.591345284102225], [-73.80944590871289, 40.591314207821895], [-73.80945642457047, 40.591283176012546], [-73.809467264266, 40.59125221610411], [-73.8094784386399, 40.591221314390374], [-73.80948992242512, 40.59119049278786], [-73.80950173004706, 40.59115974308591], [-73.80951838360303, 40.5911177861377], [-73.80952628437082, 40.59109846756421], [-73.80953906367259, 40.59106787317807], [-73.80955213059251, 40.59103742474182], [-73.80956551049849, 40.591007064656594], [-73.80957920699855, 40.59097679018335], [-73.80959323818897, 40.59094656841428], [-73.80960757144528, 40.59091647614992], [-73.80962223213535, 40.59088645579107], [-73.80963721659556, 40.59085652929013], [-73.80965251039991, 40.5908267048574], [-73.80966815327152, 40.590796941386536], [-73.8096774272715, 40.59077962329581], [-73.80970035967918, 40.5907377782774], [-73.80971691601354, 40.590708378626935], [-73.80973379974785, 40.59067906186034], [-73.8097510036962, 40.59064982247598], [-73.8097685278661, 40.590620657728834], [-73.80978631083705, 40.59059164162696], [-73.80980441023289, 40.59056276877593], [-73.80982283328571, 40.590534028208396], [-73.80984158369738, 40.59050538424782], [-73.80986065422736, 40.59047685060608], [-73.80988003774468, 40.590448402567965], [-73.80989971975303, 40.59042007304703], [-73.80991967858667, 40.59039188396577], [-73.80993992873323, 40.59036380515507], [-73.80996049544301, 40.59033582018772], [-73.80998130647885, 40.590308008543474], [-73.81000241953473, 40.590280340124714], [-73.81002384184275, 40.59025280396406], [-73.81004557703436, 40.590225389088104], [-73.81006760340473, 40.59019813114325], [-73.81008992103952, 40.59017099993659], [-73.81011254074002, 40.59014399548584], [-73.81013543726344, 40.59011713147314], [-73.8101586106018, 40.590090410643114], [-73.81018207521934, 40.590063811061036], [-73.81020581669037, 40.59003734093729], [-73.81022981692641, 40.59001103043479], [-73.81025409406246, 40.5899848329215], [-73.81027863000219, 40.58995878130515], [-73.81030342112938, 40.589932881069146], [-73.81032842778384, 40.58990715136152], [-73.81035310469262, 40.5898821539675], [-73.81037815242608, 40.58985715992496], [-73.81041314241111, 40.58982284444969], [-73.81042880440155, 40.589807705233945], [-73.81045451333817, 40.589783145944914], [-73.81048040899066, 40.58975875988093], [-73.81050654549863, 40.589734500469326], [-73.81053289401142, 40.589710384131294], [-73.81055945449005, 40.5896864245906], [-73.8105862377981, 40.58966259990661], [-73.81061320058978, 40.589638959414195], [-73.81064044394304, 40.589615409956444], [-73.81066788482109, 40.58959203099562], [-73.8106954763009, 40.58956886362647], [-73.81072335554316, 40.58954578730333], [-73.81075138176335, 40.58952293080001], [-73.81077989779249, 40.589500017455435], [-73.81080844171154, 40.58947741980246], [-73.81083719033292, 40.589455000891846], [-73.81086617253807, 40.58943273332278], [-73.81089535586062, 40.58941063900024], [-73.81092475113309, 40.58938870696261], [-73.8109543546695, 40.58936696739659], [-73.81098417736457, 40.58934538738221], [-73.81101354094791, 40.58932445437927], [-73.81104309484046, 40.58930369734942], [-73.81107285709116, 40.589283099853354], [-73.81110636652464, 40.58926027423709], [-73.81113762752224, 40.58923932785274], [-73.81116664037596, 40.58922015914483], [-73.81120085369761, 40.58919794949443], [-73.81122949323168, 40.58917964202649], [-73.81126174249452, 40.58915932853744], [-73.81129419284362, 40.589139199271614], [-73.81132683349324, 40.589119248721516], [-73.81135967168315, 40.589099463174854], [-73.81139270742113, 40.58907983988664], [-73.81142591184941, 40.58906039802304], [-73.81145927415125, 40.58904114305571], [-73.81149278705615, 40.589022099675866], [-73.8115264505411, 40.589003276117786], [-73.81156035108668, 40.58898464781989], [-73.81159442023036, 40.58896623388334], [-73.81162869763142, 40.588948015159346], [-73.81166313279084, 40.58893002450267], [-73.81169776897617, 40.588912240025614], [-73.81173258814658, 40.58889467542246], [-73.81176757949322, 40.588877333420214], [-73.81180278628351, 40.58886019213098], [-73.81183815448004, 40.58884326244541], [-73.81187367685895, 40.58882655258593], [-73.81190943273835, 40.58881002425495], [-73.81194534287782, 40.58879368830175], [-73.81198140724663, 40.58877755570542], [-73.8120176763516, 40.588761590865914], [-73.81205414306918, 40.58874576632334], [-73.81209067407531, 40.58873012028674], [-73.81212743872182, 40.58871460637132], [-73.81216432545715, 40.58869920243593], [-73.8122013125785, 40.58868394412754], [-73.81223846866392, 40.58866877117238], [-73.81227558108753, 40.588653754587824], [-73.81235130801161, 40.58862345758961], [-73.81242733665523, 40.58859339159781], [-73.81280976019653, 40.588443533961474], [-73.82062364506287, 40.585359027193576], [-73.82073810278952, 40.58531417452218], [-73.82085331979397, 40.58526940526488], [-73.82096881275923, 40.58522504804318], [-73.82104591156502, 40.58519578499208], [-73.82116180855927, 40.58515237790894], [-73.8212393015259, 40.585123749392054], [-73.82131697012552, 40.58509538734234], [-73.82143379920547, 40.58505333736921], [-73.82155095779038, 40.585011875177756], [-73.82166850002547, 40.58497094869977], [-73.82180378401358, 40.58492466705239], [-73.82192003928208, 40.58488560478998], [-73.82203655571708, 40.58484711098959], [-73.8221534414812, 40.5848091281769], [-73.82223152165372, 40.58478410932135], [-73.82230970908788, 40.584759348590495], [-73.8223880794475, 40.58473482414263], [-73.82246652459531, 40.584710585216826], [-73.82254514902611, 40.58468659903665], [-73.82262008298805, 40.584664034405016], [-73.8227003234848, 40.584640171385175], [-73.82278068205378, 40.58461656375842], [-73.82286121279378, 40.58459317592554], [-73.82298227969717, 40.5845584403334], [-73.82314356465774, 40.58451279553331], [-73.82810371353902, 40.58312533298678], [-73.8284670909543, 40.58302436487082], [-73.828547993943, 40.58300169549453], [-73.82861486839296, 40.582982743563335], [-73.8286693136491, 40.58296717387535], [-73.82870961829636, 40.58295551913426], [-73.82874951249437, 40.58294387200162], [-73.82878947546071, 40.58293207673805], [-73.82882937392029, 40.58292016059298], [-73.82886927275244, 40.582908093470216], [-73.82890911076188, 40.58289587253387], [-73.8289488843553, 40.58288349503376], [-73.82898857195278, 40.582870952703495], [-73.8290282023972, 40.582858229117235], [-73.82906770723685, 40.582845343386786], [-73.82910709000136, 40.582832322965665], [-73.82914644799914, 40.58281912682655], [-73.82918572006295, 40.582805741154516], [-73.8292249025924, 40.58279216594429], [-73.82926395235073, 40.58277841485578], [-73.82930289092438, 40.58276449341073], [-73.82934168582798, 40.582750434498784], [-73.82941881196388, 40.58272200578394], [-73.82952640757229, 40.58268163291314], [-73.82963339106024, 40.582641248054756], [-73.82966886091475, 40.58262797186152], [-73.82974018192687, 40.582601524309844], [-73.82977798600623, 40.582587702580554], [-73.8298159158148, 40.58257398258292], [-73.82985390285987, 40.58256039989786], [-73.82989189304908, 40.58254699012778], [-73.82993001247026, 40.582533720521575], [-73.82996815660178, 40.58252063758621], [-73.83000637585943, 40.582507735906596], [-73.83004469544404, 40.58249501551993], [-73.830083115342, 40.582482481915775], [-73.83012218681544, 40.582469960241376], [-73.83016188102141, 40.582457466922335], [-73.83020138011638, 40.58244524503709], [-73.83024104805959, 40.58243315788336], [-73.83028078399268, 40.58242122727038], [-73.83032064202187, 40.582409412105875], [-73.83040061644321, 40.58238609776961], [-73.83048105475393, 40.58236296796421], [-73.83058853414404, 40.58233244778533], [-73.83068284882732, 40.58230580573208], [-73.83096603996874, 40.582224798017535], [-73.83142102061231, 40.58209352087624], [-73.83161875376145, 40.58203715252637], [-73.83181282823863, 40.58198247202664], [-73.83221649522208, 40.581870626698276], [-73.83246980492328, 40.58180137979826], [-73.83258708317264, 40.5817689149912], [-73.83282075886808, 40.58170336341008], [-73.83293729105515, 40.58167110027588], [-73.83297685403618, 40.5816602938504], [-73.83305625298082, 40.5816389146639], [-73.83309581144546, 40.58162845952625], [-73.83313547390843, 40.581618160980035], [-73.83317526207303, 40.581607977884545], [-73.83325530242288, 40.581587752310895], [-73.83329690909737, 40.58157736320723], [-73.83333546066977, 40.58156786995344], [-73.83344738808616, 40.58154130333153], [-73.8335222980919, 40.581524004333524], [-73.83359735148625, 40.58150693605817], [-73.83381678604465, 40.58145770166242], [-73.83393783643653, 40.58142936088901], [-73.83400721168375, 40.58141255312994], [-73.83404178622031, 40.58140401732057], [-73.83431365909253, 40.581332762012956], [-73.8343580779314, 40.581320578731955], [-73.8344917353353, 40.581283472167584], [-73.83493734199844, 40.58115822264972], [-73.8370013253845, 40.58058264916541]]]}, "properties": {"objectid": "22", "service_name": "Rockaway Park Shuttle", "service": "SR", "shape_stlength": "15617.842059676923"}}]}