{"type": "FeatureCollection", "features": [{"type": "Feature", "properties": {"name": "neighbors"}, "geometry": {"type": "MultiPolygon", "coordinates": [[[[-73.992998, 40.786353], [-74.0004487, 40.7761545], [-74.0016207, 40.7745491], [-74.014028, 40.757551], [-74.0142459, 40.7566558], [-74.0174387, 40.7435392], [-74.0206386, 40.7303906], [-74.0213072, 40.7276365], [-74.0213403, 40.7275071], [-74.021347, 40.7274823], [-74.023637, 40.718068], [-74.02639, 40.700102], [-74.034495, 40.6866935], [-74.035443, 40.685125], [-74.0378384, 40.6810948], [-74.049594, 40.661622], [-74.055766, 40.651475], [-74.086986, 40.651506], [-74.093442, 40.648064], [-74.109848, 40.648064], [-74.126018, 40.642151], [-74.132921, 40.643684], [-74.14311, 40.641989], [-74.15789104893146, 40.64372980812943], [-74.15791348653059, 40.64374875883003], [-74.1579712715804, 40.643813021689795], [-74.15798759520317, 40.64386178898324], [-74.16146036002637, 40.64429496988258], [-74.16147132237498, 40.64415151504999], [-74.18165, 40.646528], [-74.185641, 40.646042], [-74.19143, 40.642025], [-74.196247, 40.637689], [-74.198164, 40.634786], [-74.2003778, 40.6331168], [-74.2024, 40.631592], [-74.202281, 40.628781], [-74.203925, 40.62437], [-74.202425, 40.61677], [-74.203889, 40.614276], [-74.204834, 40.606062], [-74.199589, 40.600382], [-74.199589, 40.597846], [-74.2036022, 40.5926384], [-74.203734, 40.592719], [-74.203873, 40.592805], [-74.203879, 40.592809], [-74.203885, 40.592812], [-74.203969, 40.592864], [-74.205595, 40.593868], [-74.207221, 40.594872], [-74.208013, 40.59536], [-74.208026, 40.595368], [-74.20884, 40.595867], [-74.210741, 40.597032], [-74.212032, 40.598372], [-74.212204, 40.599125], [-74.21287, 40.602035], [-74.213708, 40.603163], [-74.214486, 40.603672], [-74.215101, 40.604074], [-74.215155, 40.604064], [-74.215793, 40.603945], [-74.216932, 40.603038], [-74.217711, 40.601769], [-74.218124, 40.601413], [-74.220216, 40.600555], [-74.220722, 40.600452], [-74.220789, 40.600438], [-74.221958, 40.600199], [-74.225984, 40.599824], [-74.226305, 40.599794], [-74.227352, 40.599697], [-74.22911, 40.599397], [-74.229222, 40.599378], [-74.229724, 40.599277], [-74.230533, 40.599142], [-74.230805, 40.599084], [-74.231077, 40.599025], [-74.23124, 40.59899], [-74.231748, 40.598881], [-74.231821, 40.598908], [-74.232467, 40.599145], [-74.232616, 40.599256], [-74.232622, 40.59926], [-74.232643, 40.599276], [-74.232711, 40.599327], [-74.232757, 40.599362], [-74.233145, 40.599653], [-74.233256, 40.599737], [-74.233372, 40.599825], [-74.234067, 40.600345], [-74.234075, 40.600362], [-74.234078, 40.600368], [-74.23408, 40.600373], [-74.234083, 40.60038], [-74.234094, 40.600405], [-74.234101, 40.600422], [-74.234219, 40.600691], [-74.234306, 40.600889], [-74.234367, 40.60103], [-74.234369, 40.601035], [-74.234372, 40.601042], [-74.234392, 40.601088], [-74.234419, 40.60115], [-74.234424, 40.601162], [-74.234427, 40.601168], [-74.234431, 40.601177], [-74.234528, 40.601398], [-74.234663, 40.601707], [-74.234737, 40.601876], [-74.234741, 40.601885], [-74.234743, 40.60189], [-74.234767, 40.601945], [-74.234901, 40.602012], [-74.234925, 40.602024], [-74.234966, 40.602044], [-74.235779, 40.60245], [-74.235796, 40.602458], [-74.235905, 40.602512], [-74.235968, 40.602543], [-74.235976, 40.602547], [-74.236012, 40.602565], [-74.236076, 40.602596], [-74.236115, 40.602616], [-74.236218, 40.602668], [-74.236609, 40.60272], [-74.236678, 40.602719], [-74.236722, 40.602719], [-74.237117, 40.602714], [-74.237301, 40.602711], [-74.237519, 40.602502], [-74.238326, 40.601729], [-74.238346, 40.601709], [-74.238486, 40.601575], [-74.23899, 40.601092], [-74.239272, 40.600938], [-74.240116, 40.600479], [-74.240716, 40.600152], [-74.24149, 40.599936], [-74.241589, 40.59992], [-74.241688, 40.599903], [-74.241696, 40.599902], [-74.241774, 40.599889], [-74.241984, 40.599854], [-74.24225, 40.599811], [-74.24228, 40.599806], [-74.24247, 40.599774], [-74.242488, 40.599771], [-74.242593, 40.599754], [-74.24287, 40.599751], [-74.242895, 40.599751], [-74.24311, 40.599749], [-74.24335, 40.599747], [-74.243377, 40.599747], [-74.243642, 40.599744], [-74.244116, 40.599785], [-74.244124, 40.599786], [-74.244298, 40.5998], [-74.244348, 40.599805], [-74.244355, 40.599805], [-74.244362, 40.599806], [-74.244479, 40.599816], [-74.244729, 40.599838], [-74.244976, 40.59986], [-74.245226, 40.599881], [-74.245236, 40.599882], [-74.245474, 40.599903], [-74.246426, 40.599985], [-74.247379, 40.600067], [-74.247443, 40.600073], [-74.247584, 40.600085], [-74.24779, 40.600103], [-74.248542, 40.600214], [-74.249218, 40.600313], [-74.249298, 40.600325], [-74.24946, 40.600349], [-74.249575, 40.600366], [-74.249623, 40.600373], [-74.249688, 40.600383], [-74.25381, 40.600989], [-74.255798, 40.602183], [-74.255805, 40.602187], [-74.255822, 40.602194], [-74.257413, 40.602264], [-74.257833, 40.602282], [-74.25801, 40.60229], [-74.258114, 40.60225], [-74.258183, 40.602224], [-74.25849, 40.602107], [-74.258667, 40.60171], [-74.25909, 40.600803], [-74.259102, 40.600765], [-74.2592, 40.60045], [-74.259259, 40.600261], [-74.259292, 40.600154], [-74.259418, 40.599752], [-74.259782, 40.598589], [-74.259853, 40.598361], [-74.260085, 40.597614], [-74.260116, 40.597516], [-74.2619128, 40.5969228], [-74.2628087, 40.5967639], [-74.2633769, 40.5966676], [-74.2644663, 40.5964829], [-74.2660756, 40.5961977], [-74.2669017, 40.5960552], [-74.267758, 40.596066], [-74.2684122, 40.5959614], [-74.269327, 40.5957813], [-74.2699875, 40.5957007], [-74.272792, 40.595329], [-74.27349, 40.595203], [-74.27353500000001, 40.59519534958022], [-74.27353500000001, 40.7185975], [-74.27353500000001, 40.89714914261745], [-74.273256, 40.897232], [-74.272804, 40.897229], [-74.272663, 40.897228], [-74.272543, 40.897317], [-74.272127, 40.897405], [-74.271773, 40.897177], [-74.271482, 40.897131], [-74.271181, 40.897084], [-74.271003, 40.896992], [-74.270702, 40.89692], [-74.270234, 40.896807], [-74.268877, 40.896078], [-74.26858, 40.896031], [-74.266638, 40.894533], [-74.266454, 40.894271], [-74.26637, 40.894153], [-74.266333, 40.894101], [-74.266287, 40.894035], [-74.265997, 40.893447], [-74.265823, 40.893131], [-74.265825, 40.892951], [-74.265649, 40.892725], [-74.265652, 40.892482], [-74.265652, 40.892454], [-74.265612, 40.892377], [-74.265536, 40.892228], [-74.265426, 40.891462], [-74.265252, 40.891056], [-74.265254, 40.89083], [-74.265083, 40.890244], [-74.265038, 40.888937], [-74.264921, 40.888756], [-74.264925, 40.888396], [-74.264782, 40.887828], [-74.264755, 40.887719], [-74.26458, 40.887448], [-74.26464, 40.887358], [-74.264589, 40.887292], [-74.264289, 40.886906], [-74.262796, 40.88578], [-74.261758, 40.884998], [-74.261147, 40.88462], [-74.260874, 40.884451], [-74.260696, 40.884405], [-74.260082, 40.883963], [-74.259813, 40.883769], [-74.259635, 40.883768], [-74.259394, 40.883632], [-74.259256, 40.883554], [-74.258986, 40.883403], [-74.258921, 40.883376], [-74.258267, 40.883103], [-74.258084, 40.883069], [-74.257054, 40.882942], [-74.256477, 40.882871], [-74.255048, 40.88306], [-74.254476, 40.883098], [-74.254458, 40.883068], [-74.254393, 40.88296], [-74.254328, 40.882851], [-74.2543, 40.882794], [-74.253966, 40.8822984], [-74.25381, 40.882183], [-74.2537927, 40.8821667], [-74.253743, 40.88212], [-74.253644, 40.882026], [-74.2534529, 40.8818289], [-74.253255, 40.881693], [-74.253196, 40.881643], [-74.253156, 40.8815713], [-74.2531, 40.881561], [-74.252856, 40.881549], [-74.252787, 40.881545], [-74.252687, 40.88154], [-74.252497, 40.881531], [-74.252461, 40.881513], [-74.252456, 40.88151], [-74.252446, 40.881508], [-74.252439, 40.881505], [-74.252433, 40.881504], [-74.252425, 40.881503], [-74.252409, 40.8815], [-74.252402, 40.881503], [-74.252359, 40.881504], [-74.25235, 40.881504], [-74.252322, 40.881506], [-74.252313, 40.881504], [-74.251791, 40.881399], [-74.251134, 40.881325], [-74.250817, 40.88129], [-74.250195, 40.881222], [-74.249989, 40.8812], [-74.24966, 40.881065], [-74.249549, 40.88102], [-74.249477, 40.881004], [-74.248626, 40.881109], [-74.248524, 40.881122], [-74.248438, 40.881107], [-74.246691, 40.880799], [-74.246396, 40.880799], [-74.246291, 40.880799], [-74.245264, 40.880722], [-74.244987, 40.880699], [-74.24444, 40.880638], [-74.244091, 40.880599], [-74.2423426, 40.880496], [-74.242127, 40.880432], [-74.241992, 40.880399], [-74.241047, 40.880302], [-74.2403, 40.880204], [-74.2398318, 40.8800144], [-74.239795, 40.88], [-74.239632, 40.87988], [-74.239014, 40.879548], [-74.238182, 40.879114], [-74.238105, 40.879074], [-74.237989, 40.879014], [-74.237449, 40.878649], [-74.236611, 40.878193], [-74.236538, 40.878153], [-74.2361634, 40.8779468], [-74.236054, 40.877887], [-74.23589, 40.877799], [-74.235436, 40.877617], [-74.235135, 40.877496], [-74.235093, 40.877485], [-74.234851, 40.877423], [-74.234356, 40.877294], [-74.234297, 40.877259], [-74.234224, 40.877208], [-74.234123, 40.877134], [-74.2327863, 40.8761538], [-74.232687, 40.876099], [-74.23166, 40.875632], [-74.2316473, 40.8756263], [-74.231589, 40.8756], [-74.230723, 40.875099], [-74.230657, 40.875099], [-74.229056, 40.874137], [-74.228919, 40.87406], [-74.228701, 40.873941], [-74.228068, 40.873594], [-74.227996, 40.873556], [-74.227888, 40.873499], [-74.227288, 40.873236], [-74.226435, 40.872872], [-74.226361, 40.872835], [-74.226291, 40.8728], [-74.225163, 40.872123], [-74.22494, 40.871997], [-74.224787, 40.87191], [-74.224642, 40.871828], [-74.224314, 40.871645], [-74.223406, 40.871161], [-74.223292, 40.8711], [-74.222902, 40.870792], [-74.222856, 40.870752], [-74.222792, 40.8707], [-74.218512, 40.868411], [-74.2181, 40.868181], [-74.217846, 40.868039], [-74.217438, 40.867811], [-74.217084, 40.867613], [-74.21649, 40.867281], [-74.216202, 40.86712], [-74.21509, 40.866499], [-74.214073, 40.866039], [-74.214055, 40.86603], [-74.214039, 40.866022], [-74.213987, 40.865998], [-74.2126945, 40.8652583], [-74.2125682, 40.8651968], [-74.2123212, 40.8649235], [-74.211738, 40.864735], [-74.211487, 40.864598], [-74.211107, 40.864409], [-74.210469, 40.864096], [-74.209785, 40.863751], [-74.2091, 40.863406], [-74.208792, 40.863099], [-74.20877, 40.863088], [-74.2081254, 40.862714], [-74.20697, 40.862083], [-74.206645, 40.861901], [-74.205389, 40.861199], [-74.205387, 40.861198], [-74.204821, 40.860915], [-74.204324, 40.860663], [-74.203053, 40.860074], [-74.202992, 40.860045], [-74.20214, 40.859622], [-74.201994, 40.860094], [-74.2018524, 40.8605229], [-74.196663, 40.8594802], [-74.197382, 40.858196], [-74.197149, 40.858122], [-74.197734, 40.857279], [-74.195687, 40.856105], [-74.192196, 40.854306], [-74.192134, 40.854276], [-74.191989, 40.854198], [-74.191399, 40.853778], [-74.191289, 40.853699], [-74.191287, 40.853698], [-74.190499, 40.853238], [-74.19042, 40.853192], [-74.188728, 40.852205], [-74.188066, 40.851819], [-74.187558, 40.851522], [-74.187299, 40.851374], [-74.186765, 40.851059], [-74.185384, 40.850253], [-74.18534, 40.850228], [-74.182689, 40.848799], [-74.1812365, 40.8479823], [-74.179903, 40.847261], [-74.179403, 40.846972], [-74.179066, 40.846776], [-74.179023, 40.846751], [-74.172853, 40.84337], [-74.17279, 40.843336], [-74.172728, 40.843302], [-74.172588, 40.843225], [-74.172527, 40.843191], [-74.172438, 40.843143], [-74.170033, 40.841825], [-74.162712, 40.837914], [-74.1626308, 40.8378694], [-74.1619278, 40.8374814], [-74.1614908, 40.8372994], [-74.1612898, 40.8371644], [-74.1611918, 40.8370984], [-74.1609508, 40.8369734], [-74.1596381, 40.836294], [-74.1591268, 40.8360294], [-74.1589218, 40.8359234], [-74.1585048, 40.8356994], [-74.1580068, 40.8353804], [-74.1574148, 40.8350684], [-74.1568408, 40.8347664], [-74.1561988, 40.8344384], [-74.1558908, 40.8342684], [-74.1519258, 40.8320744], [-74.1517918, 40.8319994], [-74.1512578, 40.8316404], [-74.1511908, 40.8315984], [-74.1502038, 40.8311564], [-74.1500898, 40.8310984], [-74.1492448, 40.8305374], [-74.1481778, 40.8299404], [-74.1471468, 40.8294224], [-74.1451318, 40.8284264], [-74.1447309, 40.8282098], [-74.1445138, 40.8280714], [-74.1439468, 40.8277634], [-74.1425438, 40.8268344], [-74.1424878, 40.8268004], [-74.1417968, 40.8264494], [-74.1414148, 40.8262404], [-74.1411898, 40.8261184], [-74.1407228, 40.8258664], [-74.1395616, 40.8252554], [-74.1348784, 40.8227386], [-74.1314775, 40.8214551], [-74.1307425, 40.8211777], [-74.1306558, 40.8209906], [-74.1301658, 40.8199335], [-74.129804, 40.820021], [-74.129762, 40.820032], [-74.12844, 40.820374], [-74.127075, 40.820726], [-74.126809, 40.820794], [-74.126787, 40.8208], [-74.126716, 40.820828], [-74.126708, 40.820831], [-74.126265, 40.821005], [-74.125071, 40.821706], [-74.124996, 40.821762], [-74.124447, 40.822169], [-74.12431, 40.822375], [-74.124187, 40.8226], [-74.124176, 40.822629], [-74.124072, 40.822892], [-74.124034, 40.822989], [-74.12401, 40.823046], [-74.123986, 40.823102], [-74.122931, 40.825592], [-74.122606, 40.826343], [-74.12134, 40.830219], [-74.121312, 40.830305], [-74.1212, 40.830652], [-74.121087, 40.831], [-74.121187, 40.8326], [-74.121853, 40.834098], [-74.121904, 40.834207], [-74.122018, 40.834451], [-74.122787, 40.836199], [-74.122959, 40.836544], [-74.123326, 40.837278], [-74.123987, 40.838599], [-74.124051, 40.839433], [-74.124061, 40.83956], [-74.124074, 40.83973], [-74.124077, 40.839768], [-74.124087, 40.839899], [-74.123952, 40.840102], [-74.123912, 40.840162], [-74.123816, 40.840306], [-74.123629, 40.840586], [-74.123442, 40.840866], [-74.123227, 40.841189], [-74.123047, 40.841458], [-74.122378, 40.842592], [-74.122362, 40.842619], [-74.12199, 40.843258], [-74.121902, 40.843848], [-74.121765, 40.844758], [-74.121628, 40.84567], [-74.121551, 40.846189], [-74.121404, 40.847184], [-74.121387, 40.847299], [-74.121295, 40.847445], [-74.121062, 40.847818], [-74.120982, 40.847945], [-74.120888, 40.848124], [-74.120793, 40.848303], [-74.120717, 40.848446], [-74.12065, 40.848571], [-74.120262, 40.849294], [-74.119984, 40.849899], [-74.11988, 40.850124], [-74.119777, 40.850349], [-74.119595, 40.850745], [-74.119291, 40.851674], [-74.119304, 40.851803], [-74.1194606, 40.8533514], [-74.119487, 40.853599], [-74.119576, 40.853956], [-74.119579, 40.85397], [-74.119636, 40.854195], [-74.119655, 40.854276], [-74.119657, 40.854285], [-74.119684, 40.854392], [-74.120069, 40.855067], [-74.119861, 40.856321], [-74.119412, 40.857804], [-74.118826, 40.859327], [-74.118716, 40.859381], [-74.118389, 40.859441], [-74.118085, 40.859497], [-74.118068, 40.8595], [-74.118061, 40.859502], [-74.118012, 40.859511], [-74.11794, 40.859524], [-74.117249, 40.859652], [-74.116413, 40.859806], [-74.116011, 40.85988], [-74.116, 40.859878], [-74.115992, 40.859877], [-74.115782, 40.859848], [-74.115586, 40.85982], [-74.115209, 40.859766], [-74.114856, 40.859716], [-74.114502, 40.859665], [-74.11399, 40.859592], [-74.113916, 40.859581], [-74.113782, 40.859478], [-74.113446, 40.85922], [-74.113216, 40.859044], [-74.112987, 40.858867], [-74.112849, 40.85876], [-74.112735, 40.858673], [-74.11271, 40.858654], [-74.112615, 40.858581], [-74.112584, 40.858422], [-74.112577, 40.85839], [-74.112315, 40.857081], [-74.112306, 40.857064], [-74.112268, 40.856987], [-74.111726, 40.855903], [-74.111715, 40.855881], [-74.111046, 40.855466], [-74.110163, 40.85527], [-74.10995, 40.855316], [-74.109517, 40.855408], [-74.109451, 40.855423], [-74.10944, 40.855425], [-74.109164, 40.855574], [-74.108996, 40.855699], [-74.108629, 40.855973], [-74.107907, 40.856702], [-74.107836, 40.856759], [-74.107408, 40.857101], [-74.107286, 40.857199], [-74.106838, 40.859082], [-74.106786, 40.859299], [-74.106839, 40.859901], [-74.106839, 40.859909], [-74.106839, 40.859914], [-74.106839, 40.859919], [-74.106839, 40.859925], [-74.10684, 40.85993], [-74.107006, 40.861766], [-74.107029, 40.862032], [-74.107046, 40.862233], [-74.107086, 40.862699], [-74.107167, 40.86282], [-74.107248, 40.862942], [-74.107338, 40.863077], [-74.107385, 40.863148], [-74.107415, 40.863192], [-74.10743, 40.863215], [-74.107686, 40.863599], [-74.110024, 40.864719], [-74.110083, 40.864749], [-74.110191, 40.864804], [-74.110986, 40.865499], [-74.111663, 40.867271], [-74.111678, 40.867309], [-74.112215, 40.868715], [-74.112265, 40.868845], [-74.112282, 40.86889], [-74.113061, 40.869671], [-74.113093, 40.869703], [-74.113097, 40.869707], [-74.113215, 40.869826], [-74.11326, 40.869872], [-74.113886, 40.870499], [-74.114167, 40.871621], [-74.114208, 40.871786], [-74.114302, 40.872162], [-74.114587, 40.873299], [-74.114787, 40.874099], [-74.11487, 40.874182], [-74.114875, 40.874187], [-74.11517, 40.874482], [-74.11547, 40.874782], [-74.115487, 40.874799], [-74.115832, 40.875099], [-74.116367, 40.875564], [-74.11778, 40.876791], [-74.117804, 40.876812], [-74.117931, 40.876922], [-74.118198, 40.877153], [-74.11829, 40.877233], [-74.118331, 40.877269], [-74.118492, 40.87741], [-74.118664, 40.877502], [-74.11888, 40.877618], [-74.118917, 40.877637], [-74.119021, 40.877751], [-74.119237, 40.877987], [-74.119317, 40.878075], [-74.1194, 40.878157], [-74.119478, 40.878235], [-74.119917, 40.87917], [-74.120252, 40.879739], [-74.120268, 40.879766], [-74.120287, 40.879799], [-74.120297, 40.879828], [-74.120487, 40.880399], [-74.121293, 40.880839], [-74.121587, 40.880999], [-74.122508, 40.881478], [-74.123409, 40.881946], [-74.12431, 40.882415], [-74.1244, 40.882462], [-74.124587, 40.882559], [-74.126352, 40.883476], [-74.126577, 40.883594], [-74.126587, 40.883599], [-74.126597, 40.883606], [-74.129102, 40.885275], [-74.130187, 40.885999], [-74.130187, 40.886376], [-74.1301779, 40.8869315], [-74.130089, 40.887633], [-74.129986, 40.888408], [-74.129969, 40.888533], [-74.129962, 40.888586], [-74.129961, 40.888596], [-74.129823, 40.889637], [-74.129812, 40.889719], [-74.129809, 40.889738], [-74.129802, 40.889783], [-74.1298, 40.8898], [-74.129797, 40.889824], [-74.129796, 40.889832], [-74.129792, 40.889863], [-74.129787, 40.889899], [-74.129778, 40.889942], [-74.12972, 40.890223], [-74.129435, 40.891617], [-74.12915, 40.893011], [-74.12907, 40.893395], [-74.129011, 40.893682], [-74.128991, 40.893779], [-74.128987, 40.893799], [-74.129023, 40.89384], [-74.129058, 40.893881], [-74.129233, 40.894081], [-74.129257, 40.894108], [-74.129268, 40.894121], [-74.129312, 40.894183], [-74.129358, 40.894236], [-74.129415, 40.894293], [-74.129444, 40.894323], [-74.130782, 40.895276], [-74.13102, 40.895405], [-74.131138, 40.89557], [-74.131256, 40.895736], [-74.131744, 40.896424], [-74.131799, 40.896501], [-74.132564, 40.897575], [-74.132973, 40.898149], [-74.133383, 40.898725], [-74.133446, 40.898814], [-74.133789, 40.899295], [-74.133667, 40.900872], [-74.13363, 40.901348], [-74.133598, 40.901758], [-74.133593, 40.901823], [-74.133587, 40.901898], [-74.133552, 40.901949], [-74.133455, 40.902104], [-74.133445, 40.902118], [-74.133398, 40.902181], [-74.133387, 40.902198], [-74.133387, 40.902247], [-74.133387, 40.902363], [-74.133387, 40.902398], [-74.133348, 40.902465], [-74.133332, 40.902492], [-74.133307, 40.902535], [-74.133185, 40.902742], [-74.133182, 40.902747], [-74.133178, 40.902754], [-74.133131, 40.902834], [-74.132938, 40.903162], [-74.132409, 40.90406], [-74.132387, 40.904098], [-74.132331, 40.904413], [-74.132256, 40.904842], [-74.132136, 40.905522], [-74.13194, 40.906631], [-74.131833, 40.907235], [-74.131804, 40.907401], [-74.131787, 40.907498], [-74.132186, 40.908813], [-74.132222, 40.908932], [-74.132241, 40.908995], [-74.132296, 40.909177], [-74.132374, 40.909433], [-74.132451, 40.909689], [-74.13259, 40.910149], [-74.132787, 40.910798], [-74.13284, 40.910905], [-74.133287, 40.911798], [-74.133287, 40.912399], [-74.133287, 40.912454], [-74.133287, 40.913098], [-74.132175, 40.915137], [-74.132131, 40.915218], [-74.132087, 40.915298], [-74.13199, 40.915446], [-74.131227, 40.916614], [-74.130367, 40.91793], [-74.130305, 40.918024], [-74.130288, 40.91805], [-74.130188, 40.918197], [-74.130141, 40.918311], [-74.129725, 40.919325], [-74.129651, 40.919703], [-74.12958, 40.920071], [-74.13005, 40.921048], [-74.131534, 40.922078], [-74.131657, 40.922106], [-74.131926, 40.922168], [-74.132003, 40.922186], [-74.133903, 40.922786], [-74.137603, 40.922886], [-74.138296, 40.922942], [-74.138813, 40.923141], [-74.139225, 40.923323], [-74.139515, 40.923499], [-74.141287, 40.925398], [-74.141987, 40.927098], [-74.142187, 40.928798], [-74.142259, 40.929757], [-74.14193, 40.930316], [-74.140768, 40.931389], [-74.14009, 40.932176], [-74.139947, 40.932427], [-74.139846, 40.932773], [-74.139559, 40.933264], [-74.139489, 40.933433], [-74.139361, 40.933983], [-74.139487, 40.934298], [-74.140287, 40.935698], [-74.14299602439024, 40.939527999999996], [-73.91093638216898, 40.939527999999996], [-73.671025, 40.939527999999996], [-73.671025, 40.91684126675744], [-73.671025, 40.53177044685125], [-73.677902, 40.53209], [-73.689706, 40.53227], [-73.70004, 40.532558], [-73.708121, 40.532698], [-73.716175, 40.533116], [-73.721048, 40.533693], [-73.724929, 40.534119], [-73.728326, 40.53439], [-73.730126, 40.534262], [-73.733117, 40.533389], [-73.738567, 40.532359], [-73.742435, 40.531982], [-73.747745, 40.531594], [-73.752517, 40.531326], [-73.757153, 40.531218], [-73.7568543, 40.5563343], [-73.756571, 40.580153], [-73.756565, 40.584405], [-73.756531, 40.58617], [-73.750949, 40.590604], [-73.749651, 40.591625], [-73.748767, 40.592286], [-73.7486655, 40.5923397], [-73.744774, 40.593791], [-73.743622, 40.593743], [-73.737586, 40.593507], [-73.7379441, 40.5944691], [-73.73797121379067, 40.59454302977264], [-73.73786658749287, 40.594539441602734], [-73.73784632428159, 40.59453727796655], [-73.737804303554, 40.59452804249884], [-73.73776863283119, 40.59451761311277], [-73.7377385952103, 40.59450733277377], [-73.73771202922691, 40.594494736710104], [-73.73770589774526, 40.594491832320266], [-73.73768487329951, 40.59447281876324], [-73.73767387555077, 40.59445767474766], [-73.73766540626953, 40.59443319637178], [-73.7376539685101, 40.5944187886492], [-73.73764798223559, 40.59441483987069], [-73.7376468285491, 40.59441408134157], [-73.73763679389783, 40.59441539983818], [-73.73770476300949, 40.59466942244837], [-73.73773567396867, 40.594784994237514], [-73.73803749195454, 40.59591315116899], [-73.73813316409253, 40.59728564583414], [-73.73812220887619, 40.5973861020696], [-73.73822344542049, 40.59735112738444], [-73.73826706178608, 40.59735449138682], [-73.73844962513597, 40.59698266793224], [-73.73848679652468, 40.59698768159295], [-73.73850146415296, 40.59695877350012], [-73.73846748317669, 40.597459569115806], [-73.73846229498801, 40.597463401951686], [-73.7384473758534, 40.597481194943924], [-73.7384365132318, 40.59750062061262], [-73.73843000496976, 40.597521146324034], [-73.73842802952184, 40.59754220928171], [-73.73842572808496, 40.59756058130922], [-73.73841965958415, 40.59757844780473], [-73.73840997547153, 40.597595362865384], [-73.73839691743511, 40.597610904333415], [-73.73838081136934, 40.59762468433225], [-73.73836905388242, 40.597631355781736], [-73.73835606987075, 40.597636540036774], [-73.73834218030606, 40.59764010893943], [-73.73832772854637, 40.59764197426454], [-73.73831307184743, 40.59764208990018], [-73.73829857253124, 40.59764045298765], [-73.73828458902938, 40.59763710399248], [-73.73827146702239, 40.59763212570366], [-73.73825953089265, 40.59762564118746], [-73.73808925304176, 40.59768829704575], [-73.73807514912781, 40.59781762609594], [-73.73828313185064, 40.598165568155295], [-73.73830871892699, 40.59820837383999], [-73.73830554702238, 40.598242937965026], [-73.73799702694568, 40.601601233828596], [-73.73812447586691, 40.60251679934756], [-73.738117, 40.602627], [-73.7381452232936, 40.602665844379054], [-73.73815143112287, 40.60271044008358], [-73.73899614792049, 40.60383699184436], [-73.739156, 40.604057], [-73.73916230507128, 40.60405858638507], [-73.73922512581528, 40.604142366913614], [-73.74029138988145, 40.604598231889405], [-73.7407330207723, 40.605039100965826], [-73.741654, 40.606094], [-73.7427803355432, 40.60693001516453], [-73.74314655207264, 40.60725986604805], [-73.74332648806525, 40.60753806292791], [-73.74307247919678, 40.60788609719356], [-73.74314403515176, 40.60795411270607], [-73.743059, 40.607997], [-73.745486, 40.611902], [-73.7456714229511, 40.61183176873173], [-73.7457615018933, 40.611991654374535], [-73.74678845433328, 40.61159965094269], [-73.747183, 40.612158], [-73.7471987343907, 40.612153829030056], [-73.74721567892574, 40.61217883882552], [-73.7473720419394, 40.61210788758934], [-73.747647, 40.612035], [-73.747935, 40.612369], [-73.748864, 40.612027], [-73.748959, 40.612188], [-73.750196, 40.611742], [-73.75332, 40.610763], [-73.75439664478151, 40.61043695225411], [-73.75473218890687, 40.61040730222296], [-73.75473447491667, 40.61040110303198], [-73.75474651642602, 40.6103725305821], [-73.75477355338556, 40.61032314456537], [-73.75477376203266, 40.61032285592658], [-73.755013, 40.610251], [-73.755248, 40.610179], [-73.755241, 40.610225], [-73.755161, 40.610726], [-73.759791, 40.611408], [-73.765355, 40.614874], [-73.766453, 40.61487], [-73.766567, 40.615544], [-73.766819, 40.617033], [-73.76729, 40.620372], [-73.7670803, 40.6240423], [-73.763703, 40.627968], [-73.749708, 40.63331], [-73.7474786, 40.6341899], [-73.745502, 40.63497], [-73.744392, 40.6372], [-73.744057, 40.637577], [-73.743693, 40.637802], [-73.74334, 40.637962], [-73.743083, 40.638042], [-73.742597, 40.638098], [-73.742462, 40.638096], [-73.742046, 40.63803], [-73.741872, 40.637998], [-73.741671, 40.637934], [-73.741344, 40.637766], [-73.741253, 40.637691], [-73.741162, 40.637556], [-73.74118, 40.637437], [-73.741238, 40.637308], [-73.741328, 40.63718], [-73.741502, 40.637013], [-73.74219, 40.636198], [-73.74245, 40.635836], [-73.74257482036657, 40.635471770077885], [-73.74258539843598, 40.63545335666128], [-73.7425816114433, 40.635451953493344], [-73.742633, 40.635302], [-73.742602, 40.635114], [-73.742491, 40.634998], [-73.742355, 40.634948], [-73.741958, 40.634898], [-73.741715, 40.634913], [-73.7401621, 40.6351681], [-73.7399743778826, 40.63519892469239], [-73.7399595753528, 40.6351438091868], [-73.73990132305207, 40.635210920576036], [-73.739438, 40.635287], [-73.739484, 40.635449], [-73.7395360159708, 40.6356317783418], [-73.73947121613399, 40.635706431914876], [-73.73955759615876, 40.63586253413065], [-73.7396483723744, 40.636026586260066], [-73.7397, 40.636208], [-73.740447, 40.637943], [-73.740838, 40.638517], [-73.74225054016269, 40.64013379902726], [-73.74142279307473, 40.640503390876866], [-73.74193474876947, 40.6412947431575], [-73.74203445712871, 40.64150467334243], [-73.74166141308763, 40.642198062091396], [-73.74162258204508, 40.64271602721359], [-73.74150793732588, 40.64482936760306], [-73.741033, 40.646967], [-73.74107596446504, 40.64708721787813], [-73.73927325714638, 40.648075896506896], [-73.739008, 40.648154], [-73.73841404270064, 40.64844659373002], [-73.73673508618299, 40.649099816248835], [-73.73513501486147, 40.64973204023353], [-73.73398259890436, 40.64985220914895], [-73.73207263098428, 40.65008747436156], [-73.73114707810016, 40.650219849423884], [-73.731016, 40.650233], [-73.73089017031029, 40.65025659306682], [-73.73051457300515, 40.65031031200339], [-73.73028652986073, 40.65036852283733], [-73.72933228080221, 40.65069469477551], [-73.729065, 40.650784], [-73.728970429023, 40.65081837935775], [-73.7264979013976, 40.65166351420025], [-73.72522608103496, 40.65200100007393], [-73.72515031353048, 40.65220710475036], [-73.724804, 40.652333], [-73.7248007, 40.6534356], [-73.724799, 40.653991], [-73.724902, 40.654374], [-73.725384, 40.655356], [-73.72561019698468, 40.65558404349067], [-73.72570240303517, 40.65645873584857], [-73.72575924916656, 40.65699795914462], [-73.72580343602628, 40.657191252818706], [-73.72592687720594, 40.65773131917657], [-73.72602875988939, 40.65799899893663], [-73.7262113990149, 40.65847881694869], [-73.72644438687217, 40.65916161496076], [-73.72680978675194, 40.65979485606495], [-73.72720802015712, 40.66042232084749], [-73.7275917590304, 40.66109448811935], [-73.7279312440573, 40.66174883505256], [-73.72803306538287, 40.662072951492654], [-73.72825848696026, 40.6630519420604], [-73.72808466920584, 40.663071188790326], [-73.72798193317442, 40.66312916231947], [-73.72777, 40.66313], [-73.727734, 40.664252], [-73.727706, 40.665029], [-73.72816329443965, 40.665622913525354], [-73.72821911979167, 40.66591458472673], [-73.7282727227748, 40.666429592041965], [-73.72826620792841, 40.66660628617221], [-73.72822217020318, 40.66731363927876], [-73.72824995875676, 40.66781980931896], [-73.72819366106265, 40.66840209188526], [-73.7281284031003, 40.66870817078324], [-73.72799445690038, 40.66942669379173], [-73.72792572875012, 40.6700971482615], [-73.72788358613498, 40.67079643681198], [-73.72779414890223, 40.67145467623353], [-73.72753500301229, 40.67393028414632], [-73.72755033107912, 40.674097832039216], [-73.7275366, 40.6741534], [-73.7274918, 40.6742862], [-73.72744243615601, 40.674424962931546], [-73.72744080479352, 40.6744287411756], [-73.72728479620889, 40.674776293095576], [-73.727141, 40.675096], [-73.7269772, 40.6754381], [-73.72672091472211, 40.67607344773533], [-73.72654317309771, 40.676486729810385], [-73.72649679729321, 40.6766068864486], [-73.7264362, 40.6767525], [-73.7262728, 40.6771661], [-73.7262437, 40.6772616], [-73.72624286231543, 40.67726481515927], [-73.72619806197862, 40.67738088986505], [-73.72601116044585, 40.678078338166095], [-73.72594790849409, 40.67832888555399], [-73.7258314, 40.678746], [-73.7256431, 40.6795169], [-73.72564059595841, 40.67954618163639], [-73.72563005109944, 40.679587950890856], [-73.72563355783011, 40.67962848374916], [-73.7256271, 40.679704], [-73.7256351, 40.6799176], [-73.725687, 40.68025], [-73.72568897352826, 40.680267163043595], [-73.72575419113436, 40.68094591404747], [-73.72579655943368, 40.68136653605], [-73.72582, 40.6816404], [-73.72589977693379, 40.68257259805612], [-73.7259066008032, 40.682656604812216], [-73.72588136968699, 40.682992077010844], [-73.7258287, 40.6832562], [-73.72586073418721, 40.68327360410171], [-73.72580147979704, 40.68428378038741], [-73.72579787921153, 40.68435384991266], [-73.725926356196, 40.68622520812844], [-73.72593196221484, 40.68631194090874], [-73.72594098579772, 40.686399105180904], [-73.7259961632074, 40.68693205414493], [-73.72616338309388, 40.68845361784924], [-73.72617495100188, 40.688650030055136], [-73.72620259721364, 40.68898434090549], [-73.7262588651076, 40.690268927949056], [-73.7262583130798, 40.69061086216172], [-73.72626254324406, 40.690773253085105], [-73.72650318512274, 40.69688035875583], [-73.72650531499247, 40.69701596392567], [-73.72650538383098, 40.697024924044335], [-73.72650541791589, 40.6970283451308], [-73.72650544889288, 40.69703238923205], [-73.7265054548457, 40.697033793849464], [-73.72650547377475, 40.69703499178485], [-73.72650548804287, 40.69703724300734], [-73.72650562109435, 40.69705367791986], [-73.72650566904106, 40.69705938782347], [-73.72650576920825, 40.69707238185066], [-73.72650617482721, 40.69712356793296], [-73.72650630194262, 40.6971388050092], [-73.72650934112171, 40.69751670520531], [-73.72651147511033, 40.697781192317386], [-73.72652452210123, 40.69825809218751], [-73.72654435079282, 40.698982640083265], [-73.72665409175166, 40.701112658195235], [-73.72673796384797, 40.7015879518939], [-73.72678346816939, 40.70198712397435], [-73.72672841210559, 40.70214573587789], [-73.72677759516957, 40.7030592911996], [-73.72683525330599, 40.70440569982381], [-73.72689497712992, 40.70580017280232], [-73.72696135646343, 40.707549087048314], [-73.7270469657635, 40.709498753156744], [-73.72689487490652, 40.709978573809884], [-73.72690004194364, 40.709996831], [-73.72696515545228, 40.71066071005953], [-73.7269714679152, 40.710714504016934], [-73.72698520205971, 40.71077631182701], [-73.72718876297576, 40.71169261784418], [-73.72735961821309, 40.71238894105748], [-73.72736801308001, 40.71241113181161], [-73.72850152477136, 40.71670554586166], [-73.72852236515118, 40.71678448081912], [-73.72855295497688, 40.71689594605393], [-73.72856951516104, 40.716956292885236], [-73.72883757476156, 40.71793301900676], [-73.72917629507717, 40.71916721478107], [-73.72947667309306, 40.71998333630201], [-73.72963556812131, 40.720415037309145], [-73.72964196075878, 40.72043241392407], [-73.72964242877289, 40.72043368515445], [-73.72964541390358, 40.72044178737735], [-73.72964935890131, 40.72045251304404], [-73.72965728480857, 40.720474035186385], [-73.72965817488387, 40.72047644199315], [-73.7296587481738, 40.72047801913259], [-73.72965916916328, 40.72047916440111], [-73.72965947411386, 40.720479993971104], [-73.72966017623872, 40.72048187721417], [-73.72966006089678, 40.72048124695902], [-73.73015074756952, 40.72171570870196], [-73.730287, 40.722161], [-73.729976, 40.722344], [-73.729501, 40.722582], [-73.728832, 40.722851], [-73.72829969552073, 40.72304570724315], [-73.72816233910696, 40.72308413989149], [-73.72797157476118, 40.72315911624783], [-73.72772902827029, 40.72325444688638], [-73.727476, 40.723347], [-73.726333, 40.723787], [-73.725866, 40.723944], [-73.724083, 40.724477], [-73.7227523552164, 40.7248340238667], [-73.72257879302599, 40.72487767601828], [-73.72204226687052, 40.7250126029474], [-73.72165175062993, 40.725129325896226], [-73.721079, 40.725283], [-73.71816203521963, 40.726067121376246], [-73.71612543228723, 40.7264907908986], [-73.7145684, 40.7266867], [-73.712293, 40.726973], [-73.71071, 40.727184], [-73.708609, 40.727613], [-73.707954, 40.727768], [-73.7079537120647, 40.72776843277387], [-73.70766217302989, 40.72783093475488], [-73.70709970121251, 40.72874771477692], [-73.70648028283007, 40.72971129886409], [-73.70584734777326, 40.7306728542], [-73.7052216578116, 40.73161963010247], [-73.70499536283172, 40.731970558012605], [-73.70460114375578, 40.73256974721405], [-73.70394463088694, 40.73352626210778], [-73.703522490113, 40.734207944901854], [-73.70331490976334, 40.73456325694189], [-73.70268794512972, 40.73549022264333], [-73.7022808428287, 40.73612579680946], [-73.70206036378326, 40.73644275683318], [-73.70147357063362, 40.73750641222996], [-73.70144558621786, 40.73754693911151], [-73.70081147181156, 40.73843915219494], [-73.70031835188448, 40.73896808279088], [-73.70002020501624, 40.73923654186615], [-73.7000090639354, 40.73932341308183], [-73.70002140398307, 40.7394041660888], [-73.70029222220697, 40.741010602006554], [-73.70058164018724, 40.74318384179442], [-73.70077960803322, 40.74504145390026], [-73.700893400139, 40.747057265812764], [-73.70090127406783, 40.74712854378915], [-73.70117316524451, 40.7489243018107], [-73.70134715908382, 40.75078058093606], [-73.7014961067607, 40.75167164213059], [-73.701582, 40.752467], [-73.7016879074086, 40.75253255923324], [-73.70169386980764, 40.75253685502344], [-73.70217841689814, 40.75288593950017], [-73.7027349570185, 40.753250516905084], [-73.70346781908046, 40.753683363269154], [-73.70527128308203, 40.75477044122705], [-73.7056434896044, 40.754981159753136], [-73.71121612657022, 40.7584307560695], [-73.71244940715339, 40.75924170410951], [-73.71322329891306, 40.75967324402675], [-73.71406242437304, 40.760192682869345], [-73.71413538009266, 40.760242709870454], [-73.71657585309137, 40.761781811762084], [-73.72021435708591, 40.76419260579651], [-73.72063083099366, 40.76447640375293], [-73.7207126990016, 40.7645321902531], [-73.72075222623495, 40.764587352573166], [-73.72080904877663, 40.76464771591921], [-73.7209758841712, 40.764760159144565], [-73.72114272775374, 40.76487260693423], [-73.722484384059, 40.765527210178064], [-73.72305924186259, 40.766144406157245], [-73.72356002293202, 40.76612876183426], [-73.72554599082781, 40.767495355915486], [-73.72658720816285, 40.76811459879884], [-73.7277187531248, 40.76879613592307], [-73.72870722109356, 40.76946148404649], [-73.72970531807846, 40.77005344607418], [-73.73030460922762, 40.77041060576111], [-73.73113636491937, 40.77086955609991], [-73.73191230278991, 40.77135320778869], [-73.73304215822819, 40.77195443418401], [-73.73389261595659, 40.77252717887986], [-73.73688222993059, 40.77433096117169], [-73.73767875924717, 40.774780012300546], [-73.7377260087851, 40.77480916649596], [-73.73886227381915, 40.775573157950845], [-73.73912362001862, 40.77570414303653], [-73.73937598893414, 40.77601366983511], [-73.73992455352906, 40.77616576749067], [-73.74067507355356, 40.776628968864074], [-73.74075991577695, 40.77669471075015], [-73.74092552681356, 40.776783542080274], [-73.7467107, 40.780354], [-73.748931, 40.781725], [-73.750139, 40.782416], [-73.7502977, 40.782509], [-73.750344, 40.782553], [-73.750382, 40.782593], [-73.7563731, 40.7886389], [-73.7660428, 40.7983959], [-73.77674, 40.809188], [-73.779665, 40.812135], [-73.780415, 40.826414], [-73.758369, 40.845313], [-73.749677, 40.868468], [-73.748374, 40.871825], [-73.762401, 40.875491], [-73.784218, 40.881123], [-73.792949, 40.883385], [-73.79351525333755, 40.88352930726411], [-73.79385527171416, 40.88364331116634], [-73.79405517398023, 40.88369996689066], [-73.7948690107813, 40.88391531791845], [-73.79628181490725, 40.88429088401278], [-73.79732759309121, 40.88454106108411], [-73.79772783123815, 40.88464812978299], [-73.79930206256022, 40.88506905492893], [-73.80192449924954, 40.88571296801229], [-73.80290946460593, 40.886030680167906], [-73.8042376171258, 40.8863416819419], [-73.80452614974675, 40.88640924817131], [-73.80483870751023, 40.88647396404919], [-73.8063796861458, 40.88682937909142], [-73.80755944196362, 40.88710889180061], [-73.80872106090143, 40.8874805981886], [-73.80943273224275, 40.887638406466785], [-73.80989822392435, 40.88774054200368], [-73.8112683481647, 40.888098906237836], [-73.8124290411048, 40.88837921189038], [-73.81365108415028, 40.888678450288644], [-73.8146261918685, 40.88890934051105], [-73.8151746, 40.8890491], [-73.81576145459631, 40.88920602288912], [-73.81601699496034, 40.88932383392169], [-73.81660726558074, 40.88943218982069], [-73.81859816915573, 40.88996455055009], [-73.8194065171428, 40.890260434137375], [-73.8194872442203, 40.8902899801803], [-73.81957464105017, 40.89031509623055], [-73.82061223573477, 40.89061328894878], [-73.8228533505322, 40.891206829047775], [-73.82311790342231, 40.8911388704476], [-73.823189, 40.891199], [-73.82323679777049, 40.8911083287534], [-73.8233660128753, 40.89107513585333], [-73.82333332210403, 40.89072334279168], [-73.823333, 40.890628], [-73.82332292328337, 40.890611438642075], [-73.82328308102684, 40.89018268676931], [-73.823338, 40.890032], [-73.823165, 40.889859], [-73.822927, 40.889818], [-73.822624, 40.889924], [-73.82256431916736, 40.88990220352199], [-73.82267708790054, 40.88961946903583], [-73.82366848110328, 40.88990374014784], [-73.82391571097276, 40.889974625221626], [-73.82520822804308, 40.890344349925066], [-73.82722429759038, 40.890910233775536], [-73.82796933603909, 40.89114527505303], [-73.82866341175486, 40.891367484944254], [-73.82890564213675, 40.89143945016905], [-73.83007965306355, 40.891788232912916], [-73.83095773989488, 40.892030158950234], [-73.83184501081413, 40.89235427900927], [-73.83267808688781, 40.892601826168026], [-73.83356849751318, 40.892806426172335], [-73.83391643715058, 40.89292695386483], [-73.8354344, 40.8949907], [-73.8389867074217, 40.895645307106335], [-73.83964812806491, 40.89733053517044], [-73.8396643320591, 40.897885515052955], [-73.83923604304178, 40.8987356198128], [-73.83920940088679, 40.8988106770613], [-73.83918880498874, 40.89888682210915], [-73.83917433174886, 40.89896377437027], [-73.8391660338051, 40.89904125127228], [-73.8391639419338, 40.89911896727818], [-73.83916806407632, 40.899196636286334], [-73.83917838505819, 40.89927397302538], [-73.83919486690272, 40.899350692215705], [-73.83921744879804, 40.89942651221224], [-73.83924604720931, 40.89950115402479], [-73.84004474667755, 40.9005749570943], [-73.84023030117935, 40.90079713029769], [-73.84039877912073, 40.90102899401328], [-73.84054892587938, 40.901269379183304], [-73.84067966362085, 40.901517031231606], [-73.84079014185733, 40.901770561228076], [-73.84087973380167, 40.90202853878438], [-73.84094803906034, 40.90228945814248], [-73.84099491992694, 40.902551824991036], [-73.84102047404488, 40.90281413523892], [-73.84106272893486, 40.903214116164264], [-73.84138689269206, 40.904172741766686], [-73.84172569841148, 40.90417056991796], [-73.844812, 40.904209], [-73.844835, 40.905127], [-73.84484745439794, 40.905305379118886], [-73.84481886992495, 40.90552994983753], [-73.84486383731782, 40.90554002481], [-73.844866, 40.905571], [-73.847319, 40.906326], [-73.850084, 40.907477], [-73.8500902600019, 40.907469958428294], [-73.85017317542919, 40.907507865825465], [-73.85040148913299, 40.907218170002096], [-73.85092059381415, 40.906616494244986], [-73.85142507791112, 40.906780175231], [-73.85228059672554, 40.9070812668127], [-73.85257767308545, 40.90720019110528], [-73.85324899109351, 40.90744708938185], [-73.851842, 40.909246], [-73.851121, 40.910113], [-73.851181, 40.910121], [-73.851265, 40.910101], [-73.8513400257339, 40.91005629776006], [-73.85107116191898, 40.91037152011115], [-73.85144753984513, 40.910449671101595], [-73.85149242468167, 40.91027164024963], [-73.85178316975063, 40.910160630826134], [-73.85227451608235, 40.9098540993217], [-73.85243412465861, 40.909859719899224], [-73.852439, 40.909866], [-73.852462, 40.91], [-73.85259, 40.91016], [-73.85262238709058, 40.91016355468067], [-73.85258474775196, 40.91031061703222], [-73.8527699159019, 40.910406008033185], [-73.85295618460705, 40.91035304408977], [-73.85335351915529, 40.910043140376615], [-73.85360061710122, 40.909606741225524], [-73.8537750789652, 40.909531555120736], [-73.853916460476, 40.90946560322154], [-73.85458940544117, 40.9089394991493], [-73.85491109686753, 40.908354869668536], [-73.85479372768647, 40.90815833184246], [-73.85476750105158, 40.90810690052058], [-73.854774, 40.908067], [-73.854681, 40.907909], [-73.854443, 40.907881], [-73.85418, 40.907892], [-73.853949, 40.907881], [-73.8537433273052, 40.90779253049525], [-73.85374103615364, 40.90778791636795], [-73.85423776693442, 40.907032868127295], [-73.85513792091523, 40.906866889070706], [-73.85552697719521, 40.90638025122974], [-73.85580463797965, 40.906264364063425], [-73.85588044197486, 40.90624143018411], [-73.85595622622013, 40.906218503620664], [-73.85655732522444, 40.90626203242315], [-73.85681013619275, 40.906155828163165], [-73.85692398190014, 40.90597417005564], [-73.85679391656784, 40.90584754362481], [-73.856798, 40.905826], [-73.856798, 40.905672], [-73.85651, 40.90553], [-73.856176, 40.905489], [-73.85601136356759, 40.90545071245758], [-73.8560102334462, 40.90530598381369], [-73.85636081350269, 40.90510215402885], [-73.85665436861377, 40.905055000140095], [-73.85673146602299, 40.905101069185], [-73.85680038324311, 40.90514224808948], [-73.85705022716802, 40.90529153587843], [-73.85717766087977, 40.90528654183089], [-73.8573646080088, 40.90496273369691], [-73.857383, 40.904946], [-73.85738328659038, 40.904930380824325], [-73.85743457609159, 40.904841543099096], [-73.85735935217048, 40.904730960993845], [-73.85735388380152, 40.90472973099996], [-73.857347, 40.904706], [-73.857072, 40.904563], [-73.85704434857632, 40.904437138347355], [-73.85717176301259, 40.90408206521825], [-73.85711090489973, 40.90364953284815], [-73.85755967678821, 40.90291779547947], [-73.85774747446301, 40.902787546959786], [-73.85796932314177, 40.90285090784395], [-73.85809604120638, 40.90268540654207], [-73.858098, 40.902685], [-73.85810058367186, 40.90267947381297], [-73.85816460299762, 40.90259586077964], [-73.8581637849278, 40.90254429334889], [-73.85817, 40.902531], [-73.85816333523631, 40.90251594682685], [-73.85816000002418, 40.90230571010147], [-73.85840075376072, 40.90221325589963], [-73.85871401251184, 40.90228567958091], [-73.85885285362588, 40.90241107361368], [-73.85896181324718, 40.902517844842556], [-73.85896189921327, 40.90251792785677], [-73.85903604846267, 40.902583495972415], [-73.85910498785931, 40.90264445521764], [-73.85917899583926, 40.902656078476404], [-73.85926432520931, 40.90266947944842], [-73.85926905399648, 40.90266604174392], [-73.859285, 40.902673], [-73.859458, 40.902673], [-73.859603, 40.902574], [-73.859675, 40.902344], [-73.859559, 40.902113], [-73.85948404927252, 40.9020315204635], [-73.85946389979054, 40.90193387781703], [-73.85938576811449, 40.901904940946594], [-73.85935823037678, 40.90189474173364], [-73.859272, 40.901801], [-73.859024, 40.901704], [-73.858994, 40.901581], [-73.859069, 40.901483], [-73.85909056430253, 40.901481552396355], [-73.85920552011947, 40.901547863829485], [-73.85928099691559, 40.90155550118883], [-73.85937696512505, 40.90156521808236], [-73.85938315290944, 40.901540390859374], [-73.85940303697033, 40.9014605762219], [-73.859501, 40.901454], [-73.859544, 40.901377], [-73.859428, 40.901103], [-73.859355, 40.901015], [-73.85914563042121, 40.90092172316842], [-73.85932418498184, 40.9006975271994], [-73.85939698623689, 40.90060610923662], [-73.85946778750369, 40.90051720913357], [-73.8601070690549, 40.90072198227858], [-73.86019317316996, 40.90075025785715], [-73.86027030983603, 40.900774695457905], [-73.86050354630507, 40.90084609257264], [-73.86068622789415, 40.900902013901494], [-73.8607838009884, 40.900933044930895], [-73.86088138470656, 40.90096407592514], [-73.86109329963253, 40.90103207514078], [-73.86134100817148, 40.90111157015085], [-73.86145114398673, 40.90108719006758], [-73.8616982, 40.9011026], [-73.862347, 40.90132], [-73.862643, 40.901474], [-73.8626819319902, 40.90147029219141], [-73.8627985062273, 40.90153552211192], [-73.86305636216943, 40.90150738147579], [-73.86452318784423, 40.901924262026824], [-73.86452327049332, 40.90192428981189], [-73.86477258258628, 40.902012441936634], [-73.86565794312916, 40.90224320777036], [-73.86652124506384, 40.90251593006578], [-73.86789043706806, 40.90298695407629], [-73.87095251943089, 40.9038502528572], [-73.87294860376426, 40.90444102283429], [-73.87416054892165, 40.904781283120116], [-73.87483045244237, 40.904943783184244], [-73.87563292109846, 40.90520821290883], [-73.87646714999133, 40.9054441171074], [-73.8773681710897, 40.90571165693539], [-73.87786550388269, 40.90586920992756], [-73.87803672199264, 40.90592860716325], [-73.87807189372022, 40.90593244410303], [-73.87811197786539, 40.90594376004175], [-73.8781677757751, 40.90595550824295], [-73.87836160112977, 40.906003636003256], [-73.88148094380769, 40.90689185685068], [-73.88303257421012, 40.907333631078735], [-73.8840540725523, 40.90770269719374], [-73.88469597226361, 40.90789870014786], [-73.8848002805031, 40.90793073629271], [-73.88561523020898, 40.9081810244088], [-73.88599855043816, 40.90829712498621], [-73.88605575389856, 40.90831445280078], [-73.88610703995391, 40.90832927112697], [-73.89246906581641, 40.910167664104904], [-73.89663333831646, 40.91141737492334], [-73.8966306859999, 40.9112989270001], [-73.89663333881637, 40.91141737492324], [-73.89725326377472, 40.911655519969415], [-73.89810489644351, 40.91179060000525], [-73.89991648381654, 40.91237068998052], [-73.90066409305153, 40.9124638778352], [-73.90184362369494, 40.912789633957715], [-73.902589, 40.913014], [-73.90282302277005, 40.91308257536482], [-73.90851155008805, 40.91500226401336], [-73.91011276612554, 40.91539873407241], [-73.9103325682445, 40.915532777002774], [-73.91043342515484, 40.91531263896333], [-73.918346, 40.91763], [-73.9189436, 40.9161216], [-73.9271142, 40.8954936], [-73.929795, 40.888724], [-73.933907, 40.882012], [-73.9341963, 40.8815481], [-73.948336, 40.858446], [-73.948822, 40.857651], [-73.952397, 40.851812], [-73.952486, 40.851666], [-73.952565, 40.851537], [-73.952829, 40.851106], [-73.953988, 40.848468], [-73.954194, 40.848003], [-73.954312, 40.847732], [-73.955661, 40.844661], [-73.955727, 40.84451], [-73.957796, 40.839801], [-73.957831, 40.839721], [-73.958019, 40.839292], [-73.958705, 40.837732], [-73.9587239, 40.8376892], [-73.958824, 40.837462], [-73.960086, 40.834587], [-73.960136, 40.834474], [-73.961211, 40.832027], [-73.961263, 40.83191], [-73.961329, 40.831759], [-73.961646, 40.831036], [-73.96168, 40.830961], [-73.962463, 40.829177], [-73.962585, 40.828901], [-73.962654, 40.828742], [-73.963577, 40.826642], [-73.963787, 40.826355], [-73.963815, 40.826316], [-73.96502, 40.824666], [-73.965138, 40.824504], [-73.96517, 40.82446], [-73.965592, 40.823883], [-73.965719, 40.823709], [-73.9659, 40.823461], [-73.965981, 40.82335], [-73.96647, 40.82268], [-73.966563, 40.822553], [-73.967803, 40.820854], [-73.967865, 40.820771], [-73.967894, 40.820731], [-73.970693, 40.816897], [-73.971123, 40.816308], [-73.971152, 40.816269], [-73.971616, 40.815633], [-73.973487, 40.813071], [-73.975085, 40.810882], [-73.977172, 40.808025], [-73.9772909, 40.8078621], [-73.978864, 40.805707], [-73.979094, 40.805392], [-73.980634, 40.803283], [-73.982516, 40.800706], [-73.982655, 40.800516], [-73.984362, 40.798179], [-73.984739, 40.797662], [-73.99169, 40.788143], [-73.992998, 40.786353]], [[-74.0453632, 40.6888759], [-74.0453147, 40.6888513], [-74.04531179488123, 40.68885463086894], [-74.04478399103188, 40.68859566005792], [-74.04438521705612, 40.68851617820168], [-74.04397458578079, 40.68858240702812], [-74.04364078613705, 40.688766559785186], [-74.04363871251165, 40.68877363455058], [-74.0436327, 40.688777], [-74.0435113, 40.689208], [-74.04346544164413, 40.68963795922859], [-74.04269380809586, 40.68999725905376], [-74.04263929302562, 40.689928175955714], [-74.04255372018648, 40.68996275914495], [-74.04270428413375, 40.69015520482229], [-74.04278433306983, 40.69012097684584], [-74.04273533896499, 40.69005019121024], [-74.04350183142161, 40.68968930393979], [-74.0435049, 40.6896932], [-74.04380628881839, 40.69008090204806], [-74.04388559600675, 40.69018482409714], [-74.04388814280793, 40.69018619779048], [-74.0438883, 40.6901864], [-74.04391462720751, 40.69020048294302], [-74.04460616491457, 40.690573484475536], [-74.04506582778183, 40.69075038128846], [-74.0458907, 40.6910753], [-74.0459271, 40.6910896], [-74.0459617, 40.6911024], [-74.0459898, 40.6911115], [-74.0460174, 40.6911182], [-74.0460458, 40.6911231], [-74.0460787, 40.6911267], [-74.0461132, 40.691129], [-74.0461245, 40.6911292], [-74.0461524, 40.6911293], [-74.0461778, 40.691104], [-74.04685082974645, 40.691057938716895], [-74.0469969069895, 40.69104932616015], [-74.04703534814037, 40.691045826247446], [-74.0470726967221, 40.69103806420959], [-74.04710814069992, 40.69102620832871], [-74.04714091071601, 40.691010516337414], [-74.04717029494704, 40.6909913291227], [-74.04719421009764, 40.69096674823565], [-74.0472127219085, 40.69093959944487], [-74.04722536428265, 40.69091056537477], [-74.04723182036673, 40.69088037534222], [-74.04723192804273, 40.69084978818752], [-74.04722568396599, 40.69081957224178], [-74.04721324509907, 40.690790487168904], [-74.04719492423845, 40.69076326392435], [-74.04718321406033, 40.69074735502465], [-74.04711581988163, 40.69065580605947], [-74.04711050616285, 40.69047041292537], [-74.04720029383118, 40.690424815312014], [-74.04689205500284, 40.690059098161505], [-74.04743126078736, 40.689803890235765], [-74.04758571912386, 40.68998250691325], [-74.04772962698515, 40.689915318233304], [-74.04747651481166, 40.689611369999334], [-74.04680284899291, 40.68995325613316], [-74.04627538918811, 40.689327425448674], [-74.04536085280114, 40.688878701495405], [-74.0453632, 40.6888759]], [[-74.18375099999997, 40.69779500000007], [-74.18391299999996, 40.69750700000005], [-74.18402099999997, 40.69707500000007], [-74.18428199999994, 40.6962110000001], [-74.18438099999997, 40.69587800000008], [-74.18449799999996, 40.69518500000006], [-74.18448899999999, 40.695095000000066], [-74.18445299999996, 40.69499600000009], [-74.18563199999994, 40.691648000000086], [-74.18591099999998, 40.69145000000008], [-74.18636999999995, 40.69118900000011], [-74.18723399999999, 40.69059500000006], [-74.18779199999994, 40.690190000000065], [-74.18870099999998, 40.68944300000006], [-74.18898899999994, 40.6890470000001], [-74.18922299999997, 40.688624000000104], [-74.18934899999994, 40.688264000000075], [-74.18940299999997, 40.68809300000006], [-74.18941199999995, 40.687940000000054], [-74.18939399999994, 40.68783200000009], [-74.18939399999994, 40.68773300000007], [-74.18947499999996, 40.687490000000054], [-74.18951999999996, 40.68720200000009], [-74.18955599999998, 40.68689600000007], [-74.18962799999997, 40.686104000000114], [-74.18976299999997, 40.68503300000007], [-74.189781, 40.684817000000116], [-74.189871, 40.684079000000075], [-74.18993399999994, 40.683710000000104], [-74.18995199999995, 40.68352100000007], [-74.18998799999997, 40.68317900000009], [-74.18996999999996, 40.682954000000095], [-74.18999699999995, 40.682630000000124], [-74.18999699999995, 40.68225200000008], [-74.18996999999996, 40.6818020000001], [-74.18991599999998, 40.681541000000074], [-74.18983499999996, 40.68131600000007], [-74.189781, 40.68119900000006], [-74.18977199999995, 40.681136000000066], [-74.18969999999996, 40.68079400000008], [-74.18949299999997, 40.68009200000008], [-74.18935799999997, 40.679759000000075], [-74.18905199999995, 40.67933600000005], [-74.18877299999997, 40.67885900000008], [-74.18852099999998, 40.67848100000007], [-74.18819699999995, 40.6779230000001], [-74.18795399999995, 40.67761700000008], [-74.18767499999996, 40.677293000000105], [-74.18733299999997, 40.676744000000056], [-74.18670299999997, 40.67579000000009], [-74.18594699999994, 40.674665000000104], [-74.18547899999999, 40.673909000000066], [-74.18513699999994, 40.67345900000005], [-74.18503799999996, 40.67336000000008], [-74.18492099999997, 40.67327000000008], [-74.18458799999996, 40.67302700000008], [-74.18437199999994, 40.672910000000094], [-74.18384999999995, 40.67264900000007], [-74.18213999999996, 40.672028000000104], [-74.18133899999998, 40.67170400000007], [-74.18030399999998, 40.67129900000006], [-74.18010599999997, 40.67126300000009], [-74.17997999999994, 40.671209000000076], [-74.17979099999997, 40.67115500000008], [-74.17933199999999, 40.67101100000013], [-74.17912499999994, 40.670993000000095], [-74.17888199999999, 40.67100200000009], [-74.17862999999994, 40.67103800000008], [-74.17802699999999, 40.671209000000076], [-74.17778399999997, 40.67131700000008], [-74.17754999999994, 40.6714250000001], [-74.17734299999995, 40.67156000000009], [-74.17709099999996, 40.671785000000085], [-74.17697399999997, 40.67193800000009], [-74.17678499999994, 40.672181000000116], [-74.17663199999998, 40.672397000000075], [-74.17641599999996, 40.672622000000054], [-74.17630799999995, 40.672766000000045], [-74.17604699999998, 40.673045000000094], [-74.17538999999995, 40.673756000000076], [-74.17500299999995, 40.6741700000001], [-74.17484999999994, 40.67432300000011], [-74.17437299999995, 40.674818000000094], [-74.17423799999995, 40.67493500000011], [-74.17358999999993, 40.67571800000013], [-74.17329299999994, 40.6760150000001], [-74.17322999999999, 40.67607800000012], [-74.17314899999997, 40.6761950000001], [-74.17283399999997, 40.67656400000008], [-74.17200599999995, 40.67773400000007], [-74.17193399999996, 40.67782400000007], [-74.17160999999999, 40.678256000000076], [-74.17151999999999, 40.67838200000007], [-74.17144799999994, 40.67847200000009], [-74.17093499999999, 40.67929100000006], [-74.17067399999996, 40.679651000000064], [-74.17051199999997, 40.67999300000005], [-74.17041299999994, 40.68015500000009], [-74.17005299999994, 40.68066800000007], [-74.16995399999996, 40.6808750000001], [-74.16981899999996, 40.68101900000008], [-74.16947699999997, 40.681559000000085], [-74.16929699999997, 40.68178400000007], [-74.16916199999997, 40.68200000000011], [-74.16886499999998, 40.682396000000075], [-74.16848699999997, 40.68299900000009], [-74.16822599999995, 40.683350000000104], [-74.16816299999994, 40.68347600000008], [-74.16804599999995, 40.6836020000001], [-74.16791099999995, 40.68379100000008], [-74.16781199999997, 40.68394400000009], [-74.16738899999996, 40.68454700000011], [-74.16695699999997, 40.68523100000006], [-74.16674099999994, 40.6854920000001], [-74.16650699999997, 40.685888000000055], [-74.16639899999996, 40.68602300000004], [-74.16604799999999, 40.68655400000008], [-74.16589499999998, 40.686842000000105], [-74.16582299999999, 40.68704000000005], [-74.16580499999998, 40.68715700000009], [-74.16582299999999, 40.687490000000054], [-74.16583199999997, 40.68758000000007], [-74.16587699999997, 40.68787700000011], [-74.16576899999995, 40.68803000000007], [-74.16560699999997, 40.68842600000008], [-74.16548099999994, 40.68863300000005], [-74.16542699999997, 40.6887590000001], [-74.16528299999999, 40.68891200000008], [-74.16499499999998, 40.68938900000009], [-74.16491399999995, 40.689587000000095], [-74.16479699999996, 40.68975800000008], [-74.16467099999994, 40.68988400000009], [-74.16450899999995, 40.689983000000055], [-74.16436499999998, 40.690037000000096], [-74.16422999999998, 40.69005500000005], [-74.16417599999994, 40.69008200000011], [-74.16410399999995, 40.69008200000009], [-74.16380699999996, 40.69004600000009], [-74.16352799999999, 40.69001000000005], [-74.16341099999994, 40.690001000000095], [-74.16331199999996, 40.689992000000125], [-74.16322199999996, 40.68998300000007], [-74.16309599999994, 40.68992900000009], [-74.16306899999995, 40.68989300000007], [-74.16295199999996, 40.68987500000006], [-74.16292499999997, 40.68987500000006], [-74.16290699999996, 40.68987500000006], [-74.16279899999995, 40.69002800000007], [-74.16262799999998, 40.6902890000001], [-74.16057599999993, 40.69322300000006], [-74.16014399999995, 40.69410500000007], [-74.15958599999993, 40.694762000000054], [-74.15951399999994, 40.69488800000008], [-74.15829899999994, 40.69670600000009], [-74.15762399999994, 40.6976780000001], [-74.15758799999998, 40.697813000000075], [-74.15754299999998, 40.69793900000008], [-74.15745299999998, 40.69809200000007], [-74.15635499999996, 40.699757000000055], [-74.15600399999994, 40.70026100000009], [-74.15575199999995, 40.7006660000001], [-74.15544599999998, 40.70108900000006], [-74.15513999999996, 40.70155700000006], [-74.15386199999995, 40.70384300000009], [-74.15359199999995, 40.70437400000006], [-74.15306999999996, 40.70528300000011], [-74.15317799999997, 40.70531900000007], [-74.15323199999995, 40.70524700000007], [-74.15376299999997, 40.70540900000006], [-74.15387999999996, 40.70532800000009], [-74.15401499999997, 40.70538200000007], [-74.15409599999998, 40.70544500000008], [-74.15459099999998, 40.705652000000065], [-74.15827199999995, 40.70687600000012], [-74.15891999999997, 40.70711000000009], [-74.15904599999999, 40.70714600000012], [-74.15938799999998, 40.70726300000008], [-74.160063, 40.70748800000009], [-74.16033299999998, 40.70756900000008], [-74.16057599999993, 40.70760500000007], [-74.16081899999995, 40.70764100000011], [-74.16233999999997, 40.707722000000075], [-74.16401399999995, 40.7077760000001], [-74.16442799999999, 40.707794000000064], [-74.16681299999993, 40.707857000000075], [-74.16888299999994, 40.70793800000009], [-74.16994499999998, 40.707974000000064], [-74.17120499999999, 40.707956000000074], [-74.17133999999999, 40.70796500000009], [-74.17163699999998, 40.707956000000074], [-74.17188899999996, 40.707911000000045], [-74.17275299999994, 40.7078030000001], [-74.17347299999994, 40.70774900000006], [-74.17388699999998, 40.707731000000116], [-74.17417499999993, 40.707668000000105], [-74.17475999999994, 40.70759600000013], [-74.17515599999996, 40.7075150000001], [-74.17538099999996, 40.70747000000009], [-74.17565999999994, 40.70738000000007], [-74.17589399999997, 40.70726300000008], [-74.17599299999995, 40.707191000000115], [-74.17608299999995, 40.70711000000009], [-74.17628999999994, 40.70689400000007], [-74.17642499999994, 40.70669600000009], [-74.17664999999994, 40.70641700000008], [-74.17689299999995, 40.706192000000065], [-74.17699199999998, 40.70613800000009], [-74.17709099999996, 40.70609300000009], [-74.17776599999996, 40.705895000000076], [-74.17831499999994, 40.70572400000006], [-74.17887299999995, 40.70554400000006], [-74.179467, 40.705346000000105], [-74.18080799999996, 40.70478800000009], [-74.18132099999997, 40.70460800000009], [-74.18157299999996, 40.704500000000074], [-74.18180699999994, 40.70439200000008], [-74.18203199999994, 40.70425700000006], [-74.18220299999996, 40.70414000000008], [-74.18242799999996, 40.7039510000001], [-74.18264399999998, 40.70373500000009], [-74.18284199999994, 40.70346500000007], [-74.18299499999995, 40.703159000000056], [-74.18309399999998, 40.7028530000001], [-74.18313899999998, 40.70262800000008], [-74.18316599999997, 40.70238500000006], [-74.18315699999994, 40.70121500000007], [-74.18327399999998, 40.700090000000074], [-74.18350799999996, 40.69870400000011], [-74.18354399999998, 40.698560000000086], [-74.18356199999994, 40.69845200000006], [-74.18363399999998, 40.6983260000001], [-74.18375099999997, 40.69779500000007]], [[-74.03934037685065, 40.6981155144182], [-74.03900043889001, 40.69836989019571], [-74.03822954422694, 40.698368591349045], [-74.03809786207383, 40.699039505122286], [-74.03771124798313, 40.699344040174005], [-74.0393827810941, 40.700577694280774], [-74.03945262906649, 40.700533159912126], [-74.03995040794244, 40.70089063032149], [-74.04028808718954, 40.70064361323383], [-74.04036511100502, 40.70070416692296], [-74.04034955315318, 40.70071601882745], [-74.04048062492674, 40.70082061433523], [-74.04053637716099, 40.70078209438765], [-74.04041179180665, 40.700678484059466], [-74.04039104391973, 40.70068737610454], [-74.04031250903736, 40.70062574909637], [-74.04080080623118, 40.700268549963425], [-74.0410986121853, 40.70049294319496], [-74.04296505213769, 40.698999362162574], [-74.04270395805347, 40.69880060029348], [-74.04365651081106, 40.698064091044095], [-74.04363686205573, 40.69804823209807], [-74.04367371215382, 40.69802040416518], [-74.0416605190741, 40.696452971320056], [-74.0399124888631, 40.69770204019932], [-74.04174768884, 40.69914786378354], [-74.04124261816106, 40.69953674121756], [-74.04025555058615, 40.698804823153964], [-74.0399327211647, 40.69854442214572], [-74.03934037685065, 40.6981155144182]]], [[[-73.89662891920622, 40.91121995351595], [-73.89663068599988, 40.9112988780001], [-73.89662891913376, 40.91121995349414], [-73.89662891920622, 40.91121995351595]]]]}}]}